"","Site","daylight","Depth_Stratum","Deployment","ACat","Taxa_Groups","Taxa","nos","weight_g","Weight_Std_gm3","Abd_Std_nosm3","datetime_UTC_start","datetime_UTC_stop","lat_decdeg_start","long_decdeg_start","lat_decdeg_stop","long_decdeg_stop","VolumeFiltered_m3"
"1","SOTS","Night","Epi",5,"Fish","Fish","Argyropelecus hemigymnus",1,0.5,2.53099689626078e-05,5.06199379252156e-05,2020-12-10 16:55:00,2020-12-10 17:35:00,-46.8901666666667,-140.613666666667,-46.8816666666667,-140.629833333333,19755.06176
"2","SOTS","Night","Epi",5,"Fish","Fish","Larval Fish",4,0.5,2.53099689626078e-05,0.000202479751700862,2020-12-10 16:55:00,2020-12-10 17:35:00,-46.8901666666667,-140.613666666667,-46.8816666666667,-140.629833333333,19755.06176
"3","SOTS","Night","Epi",5,"Krill","Crustacean","Nematoscelis spp.",173,8,0.000404959503401725,0.00875724926106229,2020-12-10 16:55:00,2020-12-10 17:35:00,-46.8901666666667,-140.613666666667,-46.8816666666667,-140.629833333333,19755.06176
"4","SOTS","Night","Epi",5,"Tunicates","Gelatinous","Cyclosalpa bakeri",72,88,0.00445455453741897,0.00364463553061552,2020-12-10 16:55:00,2020-12-10 17:35:00,-46.8901666666667,-140.613666666667,-46.8816666666667,-140.629833333333,19755.06176
"5","SOTS","Night","Lmeso",6,"Cephalopod","Cephalopod","Cranchiidae - undifferentiated",1,0.5,8.43665632086926e-06,1.68733126417385e-05,2020-12-11 11:49:00,2020-12-11 13:49:00,-46.886,-140.6205,-46.8473333333333,-140.678333333333,59265.18528
"6","SOTS","Night","Lmeso",6,"Fish","Fish","Cyclothone spp.",2,0.5,8.43665632086926e-06,3.3746625283477e-05,2020-12-11 11:49:00,2020-12-11 13:49:00,-46.886,-140.6205,-46.8473333333333,-140.678333333333,59265.18528
"7","SOTS","Night","Lmeso",6,"Fish","Fish","Larval Fish",21,0,0,0.000354339565476509,2020-12-11 11:49:00,2020-12-11 13:49:00,-46.886,-140.6205,-46.8473333333333,-140.678333333333,59265.18528
"8","SOTS","Day","Lmeso",7,"Amphipods","Crustacean","Order Amphipoda - undifferentiated",3,0,0,5.06199379252156e-05,2020-12-12 04:25:00,2020-12-12 06:25:00,-46.9033333333333,-140.614,-46.9305,-140.576333333333,59265.18528
"9","SOTS","Day","Lmeso",7,"Fish","Fish","Bathylagus sp.",2,45,0.000759299068878233,3.3746625283477e-05,2020-12-12 04:25:00,2020-12-12 06:25:00,-46.9033333333333,-140.614,-46.9305,-140.576333333333,59265.18528
"10","SOTS","Day","Lmeso",7,"Fish","Fish","Cyclothone spp.",77,97,0.00163671132624864,0.00129924507341387,2020-12-12 04:25:00,2020-12-12 06:25:00,-46.9033333333333,-140.614,-46.9305,-140.576333333333,59265.18528
"11","SOTS","Day","Lmeso",7,"Gymnosome","other","Notobranchaeidae - undifferentiated",4,0,0,6.74932505669541e-05,2020-12-12 04:25:00,2020-12-12 06:25:00,-46.9033333333333,-140.614,-46.9305,-140.576333333333,59265.18528
"12","SOTS","Day","Lmeso",7,"Krill","Crustacean","Euphausiidae - undifferentiated",13,2,3.3746625283477e-05,0.000219353064342601,2020-12-12 04:25:00,2020-12-12 06:25:00,-46.9033333333333,-140.614,-46.9305,-140.576333333333,59265.18528
"13","SOTS","Day","Lmeso",7,"Medusa","Gelatinous","Hydromedusa",30,1.5,2.53099689626078e-05,0.000506199379252156,2020-12-12 04:25:00,2020-12-12 06:25:00,-46.9033333333333,-140.614,-46.9305,-140.576333333333,59265.18528
"14","SOTS","Day","Lmeso",7,"Prawn","Crustacean","Sergestes spp.",37,7.5,0.000126549844813039,0.000624312567744325,2020-12-12 04:25:00,2020-12-12 06:25:00,-46.9033333333333,-140.614,-46.9305,-140.576333333333,59265.18528
"15","SOTS","Day","Lmeso",7,"Siphonophore","Gelatinous","Order Siphonophora - undifferentiated",1,0,0,1.68733126417385e-05,2020-12-12 04:25:00,2020-12-12 06:25:00,-46.9033333333333,-140.614,-46.9305,-140.576333333333,59265.18528
"16","SOTS","Night","Epi",11,"Amphipods","Crustacean","Phronima spp.",10,0,0,0.000506199379252156,2020-12-14 11:23:00,2020-12-14 12:03:00,-46.9205,-140.627833333333,-46.9333333333333,-140.636166666667,19755.06176
"17","SOTS","Night","Epi",11,"Amphipods","Crustacean","Primno spp.",1,0,0,5.06199379252156e-05,2020-12-14 11:23:00,2020-12-14 12:03:00,-46.9205,-140.627833333333,-46.9333333333333,-140.636166666667,19755.06176
"18","SOTS","Night","Epi",11,"Amphipods","Crustacean","Themisto gaudichaudii",85,13,0.000658059193027802,0.00430269472364332,2020-12-14 11:23:00,2020-12-14 12:03:00,-46.9205,-140.627833333333,-46.9333333333333,-140.636166666667,19755.06176
"19","SOTS","Night","Epi",11,"Cephalopod","Cephalopod","Pyroteuthidae - undifferentiated",1,0,0,5.06199379252156e-05,2020-12-14 11:23:00,2020-12-14 12:03:00,-46.9205,-140.627833333333,-46.9333333333333,-140.636166666667,19755.06176
"20","SOTS","Night","Epi",11,"Fish","Fish","Larval Fish",35,0.5,2.53099689626078e-05,0.00177169782738254,2020-12-14 11:23:00,2020-12-14 12:03:00,-46.9205,-140.627833333333,-46.9333333333333,-140.636166666667,19755.06176
"21","SOTS","Night","Epi",11,"Krill","Crustacean","Euphausia spp.",0,35,0.00177169782738254,0,2020-12-14 11:23:00,2020-12-14 12:03:00,-46.9205,-140.627833333333,-46.9333333333333,-140.636166666667,19755.06176
"22","SOTS","Night","Epi",11,"Krill","Crustacean","Order Euphausiacea - undifferentiated",30,2,0.000101239875850431,0.00151859813775647,2020-12-14 11:23:00,2020-12-14 12:03:00,-46.9205,-140.627833333333,-46.9333333333333,-140.636166666667,19755.06176
"23","SOTS","Night","Epi",11,"Medusa","Gelatinous","Hydromedusa",42,1.5,7.59299068878234e-05,0.00212603739285905,2020-12-14 11:23:00,2020-12-14 12:03:00,-46.9205,-140.627833333333,-46.9333333333333,-140.636166666667,19755.06176
"24","SOTS","Night","Epi",11,"Medusa","Gelatinous","Solmissus spp.",56,280,0.0141735826190604,0.00283471652381207,2020-12-14 11:23:00,2020-12-14 12:03:00,-46.9205,-140.627833333333,-46.9333333333333,-140.636166666667,19755.06176
"25","SOTS","Night","Epi",11,"Siphonophore","Gelatinous","Diphyes spp.",50,0,0,0.00253099689626078,2020-12-14 11:23:00,2020-12-14 12:03:00,-46.9205,-140.627833333333,-46.9333333333333,-140.636166666667,19755.06176
"26","SOTS","Night","Epi",11,"Tunicates","Gelatinous","Salpidae - undifferentiated",37,240,0.0121487851020517,0.00187293770323298,2020-12-14 11:23:00,2020-12-14 12:03:00,-46.9205,-140.627833333333,-46.9333333333333,-140.636166666667,19755.06176
"27","SOTS","Night","Epi",11,NA,NA,"fish",2,5,0.000253099689626078,0.000101239875850431,2020-12-14 11:23:00,2020-12-14 12:03:00,-46.9205,-140.627833333333,-46.9333333333333,-140.636166666667,19755.06176
"28","SOTS","Night","Epi",11,NA,NA,"Larval fish",261,17,0.000860538944728665,0.0132118037984813,2020-12-14 11:23:00,2020-12-14 12:03:00,-46.9205,-140.627833333333,-46.9333333333333,-140.636166666667,19755.06176
"29","SOTS","Night","Meso",12,"Amphipods","Crustacean","Phronima spp.",2,1,5.06199379252156e-05,0.000101239875850431,2020-12-14 14:23:00,2020-12-14 15:03:00,-46.9205,-140.636333333333,-46.9323333333333,-140.644166666667,19755.06176
"30","SOTS","Night","Meso",12,"Amphipods","Crustacean","Themisto spp.",13,1,5.06199379252156e-05,0.000658059193027802,2020-12-14 14:23:00,2020-12-14 15:03:00,-46.9205,-140.636333333333,-46.9323333333333,-140.644166666667,19755.06176
"31","SOTS","Night","Meso",12,"Fish","Fish","Larval Fish",2,1,5.06199379252156e-05,0.000101239875850431,2020-12-14 14:23:00,2020-12-14 15:03:00,-46.9205,-140.636333333333,-46.9323333333333,-140.644166666667,19755.06176
"32","SOTS","Night","Meso",12,"Other","other","eggs",4,1,5.06199379252156e-05,0.000202479751700862,2020-12-14 14:23:00,2020-12-14 15:03:00,-46.9205,-140.636333333333,-46.9323333333333,-140.644166666667,19755.06176
"33","SOTS","Night","Meso",12,"Pteropod","other","Styliola subula",6,1,5.06199379252156e-05,0.000303719627551293,2020-12-14 14:23:00,2020-12-14 15:03:00,-46.9205,-140.636333333333,-46.9323333333333,-140.644166666667,19755.06176
"34","SOTS","Night","Meso",12,"Siphonophore","Gelatinous","Order Siphonophora - undifferentiated",0,60,0.00303719627551293,0,2020-12-14 14:23:00,2020-12-14 15:03:00,-46.9205,-140.636333333333,-46.9323333333333,-140.644166666667,19755.06176
"35","SOTS","Night","Lmeso",13,"Amphipods","Crustacean","Phronima spp.",1,0,0,1.68733126417385e-05,2020-12-15 11:46:00,2020-12-15 13:46:00,-46.9098333333333,-140.637,-46.8858333333333,-140.659833333333,59265.18528
"36","SOTS","Night","Lmeso",13,"Amphipods","Crustacean","Primno spp.",2,0,0,3.3746625283477e-05,2020-12-15 11:46:00,2020-12-15 13:46:00,-46.9098333333333,-140.637,-46.8858333333333,-140.659833333333,59265.18528
"37","SOTS","Night","Lmeso",13,"Amphipods","Crustacean","Themisto gaudichaudii",5,0,0,8.43665632086926e-05,2020-12-15 11:46:00,2020-12-15 13:46:00,-46.9098333333333,-140.637,-46.8858333333333,-140.659833333333,59265.18528
"38","SOTS","Night","Lmeso",13,"Copepod","Crustacean","Euchirella spp.",8,0,0,0.000134986501133908,2020-12-15 11:46:00,2020-12-15 13:46:00,-46.9098333333333,-140.637,-46.8858333333333,-140.659833333333,59265.18528
"39","SOTS","Night","Lmeso",13,"Crustacean","Crustacean","Phyllosoma",1,0,0,1.68733126417385e-05,2020-12-15 11:46:00,2020-12-15 13:46:00,-46.9098333333333,-140.637,-46.8858333333333,-140.659833333333,59265.18528
"40","SOTS","Night","Lmeso",13,"Fish","Fish","Argyropelecus hemigymnus",1,0.5,8.43665632086926e-06,1.68733126417385e-05,2020-12-15 11:46:00,2020-12-15 13:46:00,-46.9098333333333,-140.637,-46.8858333333333,-140.659833333333,59265.18528
"41","SOTS","Night","Lmeso",13,"Fish","Fish","Larval Fish",11,0.5,8.43665632086926e-06,0.000185606439059124,2020-12-15 11:46:00,2020-12-15 13:46:00,-46.9098333333333,-140.637,-46.8858333333333,-140.659833333333,59265.18528
"42","SOTS","Night","Lmeso",13,"Fish","Fish","Sternoptychidae - undifferentiated",2,0.5,8.43665632086926e-06,3.3746625283477e-05,2020-12-15 11:46:00,2020-12-15 13:46:00,-46.9098333333333,-140.637,-46.8858333333333,-140.659833333333,59265.18528
"43","SOTS","Night","Lmeso",13,"Gymnosome","other","Order Gymnosomata - undifferentiated",1,0,0,1.68733126417385e-05,2020-12-15 11:46:00,2020-12-15 13:46:00,-46.9098333333333,-140.637,-46.8858333333333,-140.659833333333,59265.18528
"44","SOTS","Night","Lmeso",13,"Krill","Crustacean","Euphausia spp.",14,1,1.68733126417385e-05,0.000236226376984339,2020-12-15 11:46:00,2020-12-15 13:46:00,-46.9098333333333,-140.637,-46.8858333333333,-140.659833333333,59265.18528
"45","SOTS","Night","Lmeso",13,"Krill","Crustacean","Nematoscelis megalops",4,0.5,8.43665632086926e-06,6.74932505669541e-05,2020-12-15 11:46:00,2020-12-15 13:46:00,-46.9098333333333,-140.637,-46.8858333333333,-140.659833333333,59265.18528
"46","SOTS","Night","Lmeso",13,"Medusa","Gelatinous","Hydromedusa",4,0,0,6.74932505669541e-05,2020-12-15 11:46:00,2020-12-15 13:46:00,-46.9098333333333,-140.637,-46.8858333333333,-140.659833333333,59265.18528
"47","SOTS","Night","Lmeso",13,"Ostocod","Ostocod","Class Ostracoda - undifferentiated",1,0.5,8.43665632086926e-06,1.68733126417385e-05,2020-12-15 11:46:00,2020-12-15 13:46:00,-46.9098333333333,-140.637,-46.8858333333333,-140.659833333333,59265.18528
"48","SOTS","Night","Lmeso",13,"Other","other","eggs",3,0.5,8.43665632086926e-06,5.06199379252156e-05,2020-12-15 11:46:00,2020-12-15 13:46:00,-46.9098333333333,-140.637,-46.8858333333333,-140.659833333333,59265.18528
"49","SOTS","Night","Lmeso",13,"Prawn","Crustacean","Phorcosergia potens",3,32,0.000539946004535633,5.06199379252156e-05,2020-12-15 11:46:00,2020-12-15 13:46:00,-46.9098333333333,-140.637,-46.8858333333333,-140.659833333333,59265.18528
"50","SOTS","Night","Lmeso",13,"Prawn","Crustacean","Sergestes spp.",3,0,0,5.06199379252156e-05,2020-12-15 11:46:00,2020-12-15 13:46:00,-46.9098333333333,-140.637,-46.8858333333333,-140.659833333333,59265.18528
"51","SOTS","Night","Lmeso",13,"Pteropod","other","Styliola subula",7,0,0,0.00011811318849217,2020-12-15 11:46:00,2020-12-15 13:46:00,-46.9098333333333,-140.637,-46.8858333333333,-140.659833333333,59265.18528
"52","SOTS","Night","Lmeso",13,"Siphonophore","Gelatinous","Diphyes spp.",6,0,0,0.000101239875850431,2020-12-15 11:46:00,2020-12-15 13:46:00,-46.9098333333333,-140.637,-46.8858333333333,-140.659833333333,59265.18528
"53","SOTS","Night","Lmeso",13,"Siphonophore","Gelatinous","Order Siphonophora - undifferentiated",0,255,0.00430269472364332,0,2020-12-15 11:46:00,2020-12-15 13:46:00,-46.9098333333333,-140.637,-46.8858333333333,-140.659833333333,59265.18528
"54","SOTS","Night","Lmeso",13,"Tunicates","Gelatinous","Cyclosalpa bakeri",1,5,8.43665632086926e-05,1.68733126417385e-05,2020-12-15 11:46:00,2020-12-15 13:46:00,-46.9098333333333,-140.637,-46.8858333333333,-140.659833333333,59265.18528
"55","SOTS","Night","Lmeso",13,"Tunicates","Gelatinous","Pyrosoma atlanticum",1,40,0.000674932505669541,1.68733126417385e-05,2020-12-15 11:46:00,2020-12-15 13:46:00,-46.9098333333333,-140.637,-46.8858333333333,-140.659833333333,59265.18528
"56","SOTS","Night","Lmeso",13,"Tunicates","Gelatinous","Salpidae - undifferentiated",1,1,1.68733126417385e-05,1.68733126417385e-05,2020-12-15 11:46:00,2020-12-15 13:46:00,-46.9098333333333,-140.637,-46.8858333333333,-140.659833333333,59265.18528
"57","SOTS","Night","Lmeso",13,"worms","other","Senticaudata",1,0,0,1.68733126417385e-05,2020-12-15 11:46:00,2020-12-15 13:46:00,-46.9098333333333,-140.637,-46.8858333333333,-140.659833333333,59265.18528
"58","SOTS","Day","Lmeso",14,"Amphipods","Crustacean","Cyphocaris richardi",1,0.5,8.43665632086926e-06,1.68733126417385e-05,2020-12-16 03:20:00,2020-12-16 05:20:00,-46.9078333333333,-140.646,-46.8828333333333,-140.684833333333,59265.18528
"59","SOTS","Day","Lmeso",14,"Amphipods","Crustacean","Cystisoma spp.",1,0.5,8.43665632086926e-06,1.68733126417385e-05,2020-12-16 03:20:00,2020-12-16 05:20:00,-46.9078333333333,-140.646,-46.8828333333333,-140.684833333333,59265.18528
"60","SOTS","Day","Lmeso",14,"Amphipods","Crustacean","Primno spp.",19,0.5,8.43665632086926e-06,0.000320592940193032,2020-12-16 03:20:00,2020-12-16 05:20:00,-46.9078333333333,-140.646,-46.8828333333333,-140.684833333333,59265.18528
"61","SOTS","Day","Lmeso",14,"Cephalopod","Cephalopod","Cranchiidae - undifferentiated",1,1,1.68733126417385e-05,1.68733126417385e-05,2020-12-16 03:20:00,2020-12-16 05:20:00,-46.9078333333333,-140.646,-46.8828333333333,-140.684833333333,59265.18528
"62","SOTS","Day","Lmeso",14,"Cephalopod","Cephalopod","Sepiolidae - undifferentiated",1,0.5,8.43665632086926e-06,1.68733126417385e-05,2020-12-16 03:20:00,2020-12-16 05:20:00,-46.9078333333333,-140.646,-46.8828333333333,-140.684833333333,59265.18528
"63","SOTS","Day","Lmeso",14,"Chaetognath","Chaetognath","Phylum Chaetognatha - undifferentiated",100,162,0.00273347664796164,0.00168733126417385,2020-12-16 03:20:00,2020-12-16 05:20:00,-46.9078333333333,-140.646,-46.8828333333333,-140.684833333333,59265.18528
"64","SOTS","Day","Lmeso",14,"Fish","Fish","Cyclothone spp.",250,50,0.000843665632086926,0.00421832816043463,2020-12-16 03:20:00,2020-12-16 05:20:00,-46.9078333333333,-140.646,-46.8828333333333,-140.684833333333,59265.18528
"65","SOTS","Day","Lmeso",14,"Fish","Fish","Gymnoscopelus fraseri",2,0.5,8.43665632086926e-06,3.3746625283477e-05,2020-12-16 03:20:00,2020-12-16 05:20:00,-46.9078333333333,-140.646,-46.8828333333333,-140.684833333333,59265.18528
"66","SOTS","Day","Lmeso",14,"Fish","Fish","Larval Fish",3,1,1.68733126417385e-05,5.06199379252156e-05,2020-12-16 03:20:00,2020-12-16 05:20:00,-46.9078333333333,-140.646,-46.8828333333333,-140.684833333333,59265.18528
"67","SOTS","Day","Lmeso",14,"Fish","Fish","Melanonus sp.",3,0.5,8.43665632086926e-06,5.06199379252156e-05,2020-12-16 03:20:00,2020-12-16 05:20:00,-46.9078333333333,-140.646,-46.8828333333333,-140.684833333333,59265.18528
"68","SOTS","Day","Lmeso",14,"Fish","Fish","Microstoma australis",3,0.5,8.43665632086926e-06,5.06199379252156e-05,2020-12-16 03:20:00,2020-12-16 05:20:00,-46.9078333333333,-140.646,-46.8828333333333,-140.684833333333,59265.18528
"69","SOTS","Day","Lmeso",14,"Fish","Fish","Stomias gracilis",1,0.5,8.43665632086926e-06,1.68733126417385e-05,2020-12-16 03:20:00,2020-12-16 05:20:00,-46.9078333333333,-140.646,-46.8828333333333,-140.684833333333,59265.18528
"70","SOTS","Day","Lmeso",14,"Fish","Fish","Winteria telescopa",2,5,8.43665632086926e-05,3.3746625283477e-05,2020-12-16 03:20:00,2020-12-16 05:20:00,-46.9078333333333,-140.646,-46.8828333333333,-140.684833333333,59265.18528
"71","SOTS","Day","Lmeso",14,"Gymnosome","other","Notobranchaeidae - undifferentiated",2,0.5,8.43665632086926e-06,3.3746625283477e-05,2020-12-16 03:20:00,2020-12-16 05:20:00,-46.9078333333333,-140.646,-46.8828333333333,-140.684833333333,59265.18528
"72","SOTS","Day","Lmeso",14,"Krill","Crustacean","Euphausia spp.",4,0.5,8.43665632086926e-06,6.74932505669541e-05,2020-12-16 03:20:00,2020-12-16 05:20:00,-46.9078333333333,-140.646,-46.8828333333333,-140.684833333333,59265.18528
"73","SOTS","Day","Lmeso",14,"Medusa","Gelatinous","Hydromedusa",25,2,3.3746625283477e-05,0.000421832816043463,2020-12-16 03:20:00,2020-12-16 05:20:00,-46.9078333333333,-140.646,-46.8828333333333,-140.684833333333,59265.18528
"74","SOTS","Day","Lmeso",14,"Ostocod","Ostocod","Gigantocypris spp.",1,0.5,8.43665632086926e-06,1.68733126417385e-05,2020-12-16 03:20:00,2020-12-16 05:20:00,-46.9078333333333,-140.646,-46.8828333333333,-140.684833333333,59265.18528
"75","SOTS","Day","Lmeso",14,"worms","other","Alciopidae - undifferentiated",1,0.5,8.43665632086926e-06,1.68733126417385e-05,2020-12-16 03:20:00,2020-12-16 05:20:00,-46.9078333333333,-140.646,-46.8828333333333,-140.684833333333,59265.18528
"76","SOTS","Day","Epi",15,"Cephalopod","Cephalopod","Cranchiidae - undifferentiated",7,0.5,2.53099689626078e-05,0.000354339565476509,2020-12-17 21:19:00,2020-12-17 21:59:00,-46.9173333333333,-140.6425,-46.929,-140.651666666667,19755.06176
"77","SOTS","Day","Epi",15,"Cephalopod","Cephalopod","Pyroteuthidae - undifferentiated",2,0.5,2.53099689626078e-05,0.000101239875850431,2020-12-17 21:19:00,2020-12-17 21:59:00,-46.9173333333333,-140.6425,-46.929,-140.651666666667,19755.06176
"78","SOTS","Day","Epi",15,"Ctenophore","Gelatinous","Ctenoplanidae - undifferentiated",5,765,0.0387242525127899,0.000253099689626078,2020-12-17 21:19:00,2020-12-17 21:59:00,-46.9173333333333,-140.6425,-46.929,-140.651666666667,19755.06176
"79","SOTS","Day","Epi",15,"Fish","Fish","Gempylidae - undifferentiated",61,0,0,0.00308781621343815,2020-12-17 21:19:00,2020-12-17 21:59:00,-46.9173333333333,-140.6425,-46.929,-140.651666666667,19755.06176
"80","SOTS","Day","Epi",15,"Fish","Fish","Larval Fish",8,2.5,0.000126549844813039,0.000404959503401725,2020-12-17 21:19:00,2020-12-17 21:59:00,-46.9173333333333,-140.6425,-46.929,-140.651666666667,19755.06176
"81","SOTS","Day","Epi",15,"Fish","Fish","Scombrolabracidae, Gempylidae - undifferentiated",1,0,0,5.06199379252156e-05,2020-12-17 21:19:00,2020-12-17 21:59:00,-46.9173333333333,-140.6425,-46.929,-140.651666666667,19755.06176
"82","SOTS","Day","Epi",15,"Krill","Crustacean","Stylocheiron spp.",1,0.5,2.53099689626078e-05,5.06199379252156e-05,2020-12-17 21:19:00,2020-12-17 21:59:00,-46.9173333333333,-140.6425,-46.929,-140.651666666667,19755.06176
"83","SOTS","Day","Epi",15,"Krill","Crustacean","Thysanoessa spp.",9,0.5,2.53099689626078e-05,0.00045557944132694,2020-12-17 21:19:00,2020-12-17 21:59:00,-46.9173333333333,-140.6425,-46.929,-140.651666666667,19755.06176
"84","SOTS","Day","Epi",15,"Medusa","Gelatinous","Periphylla periphylla",1,0.5,2.53099689626078e-05,5.06199379252156e-05,2020-12-17 21:19:00,2020-12-17 21:59:00,-46.9173333333333,-140.6425,-46.929,-140.651666666667,19755.06176
"85","SOTS","Day","Epi",15,"Pteropod","other","Styliola subula",83,0.5,2.53099689626078e-05,0.00420145484779289,2020-12-17 21:19:00,2020-12-17 21:59:00,-46.9173333333333,-140.6425,-46.929,-140.651666666667,19755.06176
"86","SOTS","Day","Epi",15,"Siphonophore","Gelatinous","Hippopodius spp.",6,474,0.0239938505765522,0.000303719627551293,2020-12-17 21:19:00,2020-12-17 21:59:00,-46.9173333333333,-140.6425,-46.929,-140.651666666667,19755.06176
"87","SOTS","Day","Epi",15,"Siphonophore","Gelatinous","Sphaeronectes spp.",1,0.5,2.53099689626078e-05,5.06199379252156e-05,2020-12-17 21:19:00,2020-12-17 21:59:00,-46.9173333333333,-140.6425,-46.929,-140.651666666667,19755.06176
"88","SOTS","Day","Epi",15,"Siphonophore","Gelatinous","Vogtia spp.",6,0.5,2.53099689626078e-05,0.000303719627551293,2020-12-17 21:19:00,2020-12-17 21:59:00,-46.9173333333333,-140.6425,-46.929,-140.651666666667,19755.06176
"89","SOTS","Day","Epi",15,"Tunicates","Gelatinous","Cyclosalpa bakeri",11,207,0.0104783271505196,0.000556819317177371,2020-12-17 21:19:00,2020-12-17 21:59:00,-46.9173333333333,-140.6425,-46.929,-140.651666666667,19755.06176
"90","SOTS","Day","Epi",15,"Tunicates","Gelatinous","Salpidae - undifferentiated",8,0.5,2.53099689626078e-05,0.000404959503401725,2020-12-17 21:19:00,2020-12-17 21:59:00,-46.9173333333333,-140.6425,-46.929,-140.651666666667,19755.06176
"91","SOTS","Day","Meso",16,"Medusa","Gelatinous","Hydromedusa",2,45.5,0.00230320717559731,0.000101239875850431,2020-12-18 01:07:00,2020-12-18 01:47:00,-46.9161666666667,-140.631833333333,-46.9093333333333,-140.643333333333,19755.06176
"92","SOTS","Day","Meso",16,"Siphonophore","Gelatinous","Diphyes spp.",28,3,0.000151859813775647,0.00141735826190604,2020-12-18 01:07:00,2020-12-18 01:47:00,-46.9161666666667,-140.631833333333,-46.9093333333333,-140.643333333333,19755.06176
"93","SOTS","Day","Meso",16,"Siphonophore","Gelatinous","Vogtia spinosa",6,6,0.000303719627551293,0.000303719627551293,2020-12-18 01:07:00,2020-12-18 01:47:00,-46.9161666666667,-140.631833333333,-46.9093333333333,-140.643333333333,19755.06176
"94","SOTS","Night","Epi",17,"Cephalopod","Cephalopod","Histioteuthis spp.",4,0.5,6.84053215205616e-07,5.47242572164493e-06,2020-12-18 11:21:00,2020-12-19 12:01:00,-46.9155,-140.634833333333,-46.9163333333333,-140.643166666667,730937.28512
"95","SOTS","Night","Epi",17,"Chaetognath","Chaetognath","Phylum Chaetognatha - undifferentiated",500,150,0.000205215964561685,0.000684053215205616,2020-12-18 11:21:00,2020-12-19 12:01:00,-46.9155,-140.634833333333,-46.9163333333333,-140.643166666667,730937.28512
"96","SOTS","Night","Epi",17,"Fish","Fish","Larval Fish",90,2,2.73621286082246e-06,0.000123129578737011,2020-12-18 11:21:00,2020-12-19 12:01:00,-46.9155,-140.634833333333,-46.9163333333333,-140.643166666667,730937.28512
"97","SOTS","Night","Epi",17,"Fish","Fish","Stomias gracilis",1,0.5,6.84053215205616e-07,1.36810643041123e-06,2020-12-18 11:21:00,2020-12-19 12:01:00,-46.9155,-140.634833333333,-46.9163333333333,-140.643166666667,730937.28512
"98","SOTS","Night","Epi",17,"Medusa","Gelatinous","Hydromedusa",16,0.5,6.84053215205616e-07,2.18897028865797e-05,2020-12-18 11:21:00,2020-12-19 12:01:00,-46.9155,-140.634833333333,-46.9163333333333,-140.643166666667,730937.28512
"99","SOTS","Night","Epi",17,"Medusa","Gelatinous","Solmissus spp.",276,1684,0.00230389122881251,0.0003775973747935,2020-12-18 11:21:00,2020-12-19 12:01:00,-46.9155,-140.634833333333,-46.9163333333333,-140.643166666667,730937.28512
"100","SOTS","Night","Epi",17,"Other","other","Phronima houses",2,0.5,6.84053215205616e-07,2.73621286082246e-06,2020-12-18 11:21:00,2020-12-19 12:01:00,-46.9155,-140.634833333333,-46.9163333333333,-140.643166666667,730937.28512
"101","SOTS","Night","Epi",17,"Siphonophore","Gelatinous","Diphyes spp.",11,0.5,6.84053215205616e-07,1.50491707345235e-05,2020-12-18 11:21:00,2020-12-19 12:01:00,-46.9155,-140.634833333333,-46.9163333333333,-140.643166666667,730937.28512
"102","SOTS","Night","Epi",17,"Tunicates","Gelatinous","Cyclosalpa bakeri",0,33,4.51475122035706e-05,0,2020-12-18 11:21:00,2020-12-19 12:01:00,-46.9155,-140.634833333333,-46.9163333333333,-140.643166666667,730937.28512
"103","SOTS","Night","Epi",17,"worms","other","Class Polychaeta - undifferentiated",1,0.5,6.84053215205616e-07,1.36810643041123e-06,2020-12-18 11:21:00,2020-12-19 12:01:00,-46.9155,-140.634833333333,-46.9163333333333,-140.643166666667,730937.28512
"104","SOTS","Night","Meso",18,"Cephalopod","Cephalopod","Sepiolidae - undifferentiated",1,0.5,2.53099689626078e-05,5.06199379252156e-05,2020-12-19 14:28:00,2020-12-19 15:08:00,-46.9161666666667,-140.653833333333,-46.9168333333333,-140.610666666667,19755.06176
"105","SOTS","Night","Meso",18,"Fish","Fish","Lampanyctus australis",6,53,0.00268285671003643,0.000303719627551293,2020-12-19 14:28:00,2020-12-19 15:08:00,-46.9161666666667,-140.653833333333,-46.9168333333333,-140.610666666667,19755.06176
"106","SOTS","Night","Meso",18,"Fish","Fish","Larval Fish",6,0.5,2.53099689626078e-05,0.000303719627551293,2020-12-19 14:28:00,2020-12-19 15:08:00,-46.9161666666667,-140.653833333333,-46.9168333333333,-140.610666666667,19755.06176
"107","SOTS","Night","Meso",18,"Krill","Crustacean","Thysanoessa spp.",11,1,5.06199379252156e-05,0.000556819317177371,2020-12-19 14:28:00,2020-12-19 15:08:00,-46.9161666666667,-140.653833333333,-46.9168333333333,-140.610666666667,19755.06176
"108","SOTS","Night","Meso",18,"Medusa","Gelatinous","Hydromedusa",1,5,0.000253099689626078,5.06199379252156e-05,2020-12-19 14:28:00,2020-12-19 15:08:00,-46.9161666666667,-140.653833333333,-46.9168333333333,-140.610666666667,19755.06176
"109","SOTS","Night","Meso",18,"Other","other","eggs",2,0.5,2.53099689626078e-05,0.000101239875850431,2020-12-19 14:28:00,2020-12-19 15:08:00,-46.9161666666667,-140.653833333333,-46.9168333333333,-140.610666666667,19755.06176
"110","SOTS","Night","Meso",18,"Siphonophore","Gelatinous","Hippopodius spp.",0,20,0.00101239875850431,0,2020-12-19 14:28:00,2020-12-19 15:08:00,-46.9161666666667,-140.653833333333,-46.9168333333333,-140.610666666667,19755.06176
"111","SOTS","Night","Meso",18,"Siphonophore","Gelatinous","Order Siphonophora - undifferentiated",0,81,0.00410021497194246,0,2020-12-19 14:28:00,2020-12-19 15:08:00,-46.9161666666667,-140.653833333333,-46.9168333333333,-140.610666666667,19755.06176
"112","SOTS","Night","Meso",18,"Siphonophore","Gelatinous","Vogtia spinosa",0,20,0.00101239875850431,0,2020-12-19 14:28:00,2020-12-19 15:08:00,-46.9161666666667,-140.653833333333,-46.9168333333333,-140.610666666667,19755.06176
"113","SOTS","Night","Meso",18,"Tunicates","Gelatinous","Cyclosalpa bakeri",3,1,5.06199379252156e-05,0.000151859813775647,2020-12-19 14:28:00,2020-12-19 15:08:00,-46.9161666666667,-140.653833333333,-46.9168333333333,-140.610666666667,19755.06176
"114","SOTS","Night","Meso",18,"Tunicates","Gelatinous","Pyrosoma atlanticum",1,75,0.00379649534439117,5.06199379252156e-05,2020-12-19 14:28:00,2020-12-19 15:08:00,-46.9161666666667,-140.653833333333,-46.9168333333333,-140.610666666667,19755.06176
"115","SOTS","Day","200-100m_scattering_layer",19,"Fish","Fish","Larval Fish",74,7.5,0.000759299068878233,0.0074917508129319,2020-12-19 04:15:00,2020-12-19 04:35:00,-46.9143333333333,-140.638666666667,-46.9153333333333,-140.6495,9877.53088
"116","SOTS","Day","200-100m_scattering_layer",19,"Siphonophore","Gelatinous","Order Siphonophora - undifferentiated",0,42,0.00425207478571811,0,2020-12-19 04:15:00,2020-12-19 04:35:00,-46.9143333333333,-140.638666666667,-46.9153333333333,-140.6495,9877.53088
"117","SOTS","Day","200-100m_scattering_layer",19,"Tunicates","Gelatinous","Cyclosalpa bakeri",0,1029,0.104175832250094,0,2020-12-19 04:15:00,2020-12-19 04:35:00,-46.9143333333333,-140.638666666667,-46.9153333333333,-140.6495,9877.53088
"118","SOTS","Day","200-100m_scattering_layer",19,"Tunicates","Gelatinous","Pyrosoma atlanticum",1,681,0.0689443554541436,0.000101239875850431,2020-12-19 04:15:00,2020-12-19 04:35:00,-46.9143333333333,-140.638666666667,-46.9153333333333,-140.6495,9877.53088
"119","SOTS","Day","target_100to0m",20,"Chaetognath","Chaetognath","Phylum Chaetognatha - undifferentiated",3565,1034,0.104682031629346,0.360920157406787,2020-12-19 07:21:00,2020-12-19 07:41:00,-46.9166666666667,-140.618166666667,-46.9161666666667,-140.627833333333,9877.53088
"120","SOTS","Day","target_100to0m",20,"Ctenophore","Gelatinous","Phylum Ctenophora - undifferentiated",1,800,0.0809919006803449,0.000101239875850431,2020-12-19 07:21:00,2020-12-19 07:41:00,-46.9166666666667,-140.618166666667,-46.9161666666667,-140.627833333333,9877.53088
"121","SOTS","Day","target_100to0m",20,"Fish","Fish","Larval Fish",26,1.5,0.000151859813775647,0.00263223677211121,2020-12-19 07:21:00,2020-12-19 07:41:00,-46.9166666666667,-140.618166666667,-46.9161666666667,-140.627833333333,9877.53088
"122","SOTS","Day","target_100to0m",20,"Medusa","Gelatinous","Solmissus spp.",0,656,0.0664133585578828,0,2020-12-19 07:21:00,2020-12-19 07:41:00,-46.9166666666667,-140.618166666667,-46.9161666666667,-140.627833333333,9877.53088
"123","SOTS","Day","target_100to0m",20,"Other","other","Phronima houses",1,1,0.000101239875850431,0.000101239875850431,2020-12-19 07:21:00,2020-12-19 07:41:00,-46.9166666666667,-140.618166666667,-46.9161666666667,-140.627833333333,9877.53088
"124","SOTS","Day","target_100to0m",20,"Siphonophore","Gelatinous","Order Siphonophora - undifferentiated",0,23,0.00232851714455992,0,2020-12-19 07:21:00,2020-12-19 07:41:00,-46.9166666666667,-140.618166666667,-46.9161666666667,-140.627833333333,9877.53088
"125","SOTS","Day","target_100to0m",20,"Tunicates","Gelatinous","Cyclosalpa bakeri",0,5410,0.547707728350832,0,2020-12-19 07:21:00,2020-12-19 07:41:00,-46.9166666666667,-140.618166666667,-46.9161666666667,-140.627833333333,9877.53088
"126","SOTS","Day","Lmeso",22,"Amphipods","Crustacean","Cyphocaris richardi",3,0.5,8.43665632086926e-06,5.06199379252156e-05,2020-12-20 02:51:00,2020-12-20 04:51:00,-46.9268333333333,-140.6515,-46.9575,-140.681333333333,59265.18528
"127","SOTS","Day","Lmeso",22,"Amphipods","Crustacean","Cystisoma spp.",1,0.5,8.43665632086926e-06,1.68733126417385e-05,2020-12-20 02:51:00,2020-12-20 04:51:00,-46.9268333333333,-140.6515,-46.9575,-140.681333333333,59265.18528
"128","SOTS","Day","Lmeso",22,"Amphipods","Crustacean","Lanceola spp.",3,0.5,8.43665632086926e-06,5.06199379252156e-05,2020-12-20 02:51:00,2020-12-20 04:51:00,-46.9268333333333,-140.6515,-46.9575,-140.681333333333,59265.18528
"129","SOTS","Day","Lmeso",22,"Amphipods","Crustacean","Order Amphipoda - undifferentiated",4,0.5,8.43665632086926e-06,6.74932505669541e-05,2020-12-20 02:51:00,2020-12-20 04:51:00,-46.9268333333333,-140.6515,-46.9575,-140.681333333333,59265.18528
"130","SOTS","Day","Lmeso",22,"Amphipods","Crustacean","Scina spp.",3,0.5,8.43665632086926e-06,5.06199379252156e-05,2020-12-20 02:51:00,2020-12-20 04:51:00,-46.9268333333333,-140.6515,-46.9575,-140.681333333333,59265.18528
"131","SOTS","Day","Lmeso",22,"Chaetognath","Chaetognath","Phylum Chaetognatha - undifferentiated",0,230,0.00388086190759986,0,2020-12-20 02:51:00,2020-12-20 04:51:00,-46.9268333333333,-140.6515,-46.9575,-140.681333333333,59265.18528
"132","SOTS","Day","Lmeso",22,"Fish","Fish","Argyropelecus hemigymnus",4,0.5,8.43665632086926e-06,6.74932505669541e-05,2020-12-20 02:51:00,2020-12-20 04:51:00,-46.9268333333333,-140.6515,-46.9575,-140.681333333333,59265.18528
"133","SOTS","Day","Lmeso",22,"Fish","Fish","Cyclothone spp.",75,82,0.00138361163662256,0.00126549844813039,2020-12-20 02:51:00,2020-12-20 04:51:00,-46.9268333333333,-140.6515,-46.9575,-140.681333333333,59265.18528
"134","SOTS","Day","Lmeso",22,"Fish","Fish","Lampanyctus australis",2,0,0,3.3746625283477e-05,2020-12-20 02:51:00,2020-12-20 04:51:00,-46.9268333333333,-140.6515,-46.9575,-140.681333333333,59265.18528
"135","SOTS","Day","Lmeso",22,"Fish","Fish","Larval Fish",10,1,1.68733126417385e-05,0.000168733126417385,2020-12-20 02:51:00,2020-12-20 04:51:00,-46.9268333333333,-140.6515,-46.9575,-140.681333333333,59265.18528
"136","SOTS","Day","Lmeso",22,"Fish","Fish","Myctophidae - undifferentiated",1,0.5,8.43665632086926e-06,1.68733126417385e-05,2020-12-20 02:51:00,2020-12-20 04:51:00,-46.9268333333333,-140.6515,-46.9575,-140.681333333333,59265.18528
"137","SOTS","Day","Lmeso",22,"Fish","Fish","Sigmops bathyphilus",3,8,0.000134986501133908,5.06199379252156e-05,2020-12-20 02:51:00,2020-12-20 04:51:00,-46.9268333333333,-140.6515,-46.9575,-140.681333333333,59265.18528
"138","SOTS","Day","Lmeso",22,"Fish","Fish","Stomias gracilis",1,0.5,8.43665632086926e-06,1.68733126417385e-05,2020-12-20 02:51:00,2020-12-20 04:51:00,-46.9268333333333,-140.6515,-46.9575,-140.681333333333,59265.18528
"139","SOTS","Day","Lmeso",22,"Medusa","Gelatinous","Hydromedusa",55,22,0.000371212878118247,0.000928032195295619,2020-12-20 02:51:00,2020-12-20 04:51:00,-46.9268333333333,-140.6515,-46.9575,-140.681333333333,59265.18528
"140","SOTS","Day","Lmeso",22,"Prawn","Crustacean","Sergestes spp.",19,2,3.3746625283477e-05,0.000320592940193032,2020-12-20 02:51:00,2020-12-20 04:51:00,-46.9268333333333,-140.6515,-46.9575,-140.681333333333,59265.18528
"141","SOTS","Day","Lmeso",22,"Pteropod","other","Clio recurva",1,0.5,8.43665632086926e-06,1.68733126417385e-05,2020-12-20 02:51:00,2020-12-20 04:51:00,-46.9268333333333,-140.6515,-46.9575,-140.681333333333,59265.18528
"142","SOTS","Day","Lmeso",22,"Pteropod","other","Styliola subula",1,0.5,8.43665632086926e-06,1.68733126417385e-05,2020-12-20 02:51:00,2020-12-20 04:51:00,-46.9268333333333,-140.6515,-46.9575,-140.681333333333,59265.18528
"143","SOTS","Day","Lmeso",22,"worms","other","Class Polychaeta - undifferentiated",2,0.5,8.43665632086926e-06,3.3746625283477e-05,2020-12-20 02:51:00,2020-12-20 04:51:00,-46.9268333333333,-140.6515,-46.9575,-140.681333333333,59265.18528
"144","SOTS","Day","Lmeso",22,NA,NA,"Fish",15,2,3.3746625283477e-05,0.000253099689626078,2020-12-20 02:51:00,2020-12-20 04:51:00,-46.9268333333333,-140.6515,-46.9575,-140.681333333333,59265.18528
"145","55S","Day","Epi",23,"Medusa","Gelatinous","Hydromedusa",5,19,0.000961778820579096,0.000253099689626078,2020-12-24 02:49:00,2020-12-24 03:29:00,-54.0968333333333,-138.8545,-54.0986666666667,-138.881,19755.06176
"146","55S","Day","Epi",23,"Tunicates","Gelatinous","Salpa thompsoni - aggregate",75,328,0.0166033396394707,0.00379649534439117,2020-12-24 02:49:00,2020-12-24 03:29:00,-54.0968333333333,-138.8545,-54.0986666666667,-138.881,19755.06176
"147","55S","Day","Epi",23,"Tunicates","Gelatinous","Salpa thompsoni - solitary",1,1,5.06199379252156e-05,5.06199379252156e-05,2020-12-24 02:49:00,2020-12-24 03:29:00,-54.0968333333333,-138.8545,-54.0986666666667,-138.881,19755.06176
"148","55S","Day","Epi",23,"Tunicates","Gelatinous","Salpa thompsoni - solitary juv",2,1,5.06199379252156e-05,0.000101239875850431,2020-12-24 02:49:00,2020-12-24 03:29:00,-54.0968333333333,-138.8545,-54.0986666666667,-138.881,19755.06176
"149","55S","Day","Meso",24,"Copepod","Crustacean","Rhincalanus spp.",1,0.5,2.53099689626078e-05,5.06199379252156e-05,2020-12-24 05:38:00,2020-12-24 06:18:00,-54.102,-138.9095,-54.1038333333333,-138.936666666667,19755.06176
"150","55S","Day","Meso",24,"Gymnosome","other","Order Gymnosomata - undifferentiated",11,6,0.000303719627551293,0.000556819317177371,2020-12-24 05:38:00,2020-12-24 06:18:00,-54.102,-138.9095,-54.1038333333333,-138.936666666667,19755.06176
"151","55S","Day","Meso",24,"Tunicates","Gelatinous","Ritteriella amboinensis",11,27,0.00136673832398082,0.000556819317177371,2020-12-24 05:38:00,2020-12-24 06:18:00,-54.102,-138.9095,-54.1038333333333,-138.936666666667,19755.06176
"152","55S","Day","Meso",24,"Tunicates","Gelatinous","Salpa fusiformis",3,5,0.000253099689626078,0.000151859813775647,2020-12-24 05:38:00,2020-12-24 06:18:00,-54.102,-138.9095,-54.1038333333333,-138.936666666667,19755.06176
"153","55S","Night","Meso",25,"Amphipods","Crustacean","Order Amphipoda - undifferentiated",22,0.5,2.53099689626078e-05,0.00111363863435474,2020-12-24 17:00:00,2020-12-24 17:40:00,-54.2131666666667,-137.139333333333,-54.2136666666667,-137.138666666667,19755.06176
"154","55S","Night","Meso",25,"Amphipods","Crustacean","Themisto gaudichaudii",11,0.5,2.53099689626078e-05,0.000556819317177371,2020-12-24 17:00:00,2020-12-24 17:40:00,-54.2131666666667,-137.139333333333,-54.2136666666667,-137.138666666667,19755.06176
"155","55S","Night","Meso",25,"Cephalopod","Cephalopod","Cranchiidae - undifferentiated",1,0.5,2.53099689626078e-05,5.06199379252156e-05,2020-12-24 17:00:00,2020-12-24 17:40:00,-54.2131666666667,-137.139333333333,-54.2136666666667,-137.138666666667,19755.06176
"156","55S","Night","Meso",25,"Fish","Fish","Larval Fish",5,0.5,2.53099689626078e-05,0.000253099689626078,2020-12-24 17:00:00,2020-12-24 17:40:00,-54.2131666666667,-137.139333333333,-54.2136666666667,-137.138666666667,19755.06176
"157","55S","Night","Meso",25,"Fish","Fish","Protomyctophum sp.",4,2,0.000101239875850431,0.000202479751700862,2020-12-24 17:00:00,2020-12-24 17:40:00,-54.2131666666667,-137.139333333333,-54.2136666666667,-137.138666666667,19755.06176
"158","55S","Night","Meso",25,"Gymnosome","other","Order Gymnosomata - undifferentiated",8,1,5.06199379252156e-05,0.000404959503401725,2020-12-24 17:00:00,2020-12-24 17:40:00,-54.2131666666667,-137.139333333333,-54.2136666666667,-137.138666666667,19755.06176
"159","55S","Night","Meso",25,"Krill","Crustacean","Euphausia similis similis",45,0.5,2.53099689626078e-05,0.0022778972066347,2020-12-24 17:00:00,2020-12-24 17:40:00,-54.2131666666667,-137.139333333333,-54.2136666666667,-137.138666666667,19755.06176
"160","55S","Night","Meso",25,"Krill","Crustacean","Euphausia triacantha",135,27,0.00136673832398082,0.0068336916199041,2020-12-24 17:00:00,2020-12-24 17:40:00,-54.2131666666667,-137.139333333333,-54.2136666666667,-137.138666666667,19755.06176
"161","55S","Night","Meso",25,"Krill","Crustacean","Stylocheiron spp.",3,0,0,0.000151859813775647,2020-12-24 17:00:00,2020-12-24 17:40:00,-54.2131666666667,-137.139333333333,-54.2136666666667,-137.138666666667,19755.06176
"162","55S","Night","Meso",25,"Krill","Crustacean","Thysanoessa macrura",31,0.5,2.53099689626078e-05,0.00156921807568168,2020-12-24 17:00:00,2020-12-24 17:40:00,-54.2131666666667,-137.139333333333,-54.2136666666667,-137.138666666667,19755.06176
"163","55S","Night","Meso",25,"Pteropod","other","Styliola subula",5,0.5,2.53099689626078e-05,0.000253099689626078,2020-12-24 17:00:00,2020-12-24 17:40:00,-54.2131666666667,-137.139333333333,-54.2136666666667,-137.138666666667,19755.06176
"164","55S","Night","Meso",25,"Tunicates","Gelatinous","Salpa thompsoni - aggregate",133,21,0.00106301869642953,0.00673245174405367,2020-12-24 17:00:00,2020-12-24 17:40:00,-54.2131666666667,-137.139333333333,-54.2136666666667,-137.138666666667,19755.06176
"165","55S","Night","Meso",25,"Tunicates","Gelatinous","Salpa thompsoni - solitary",3,320,0.016198380136069,0.000151859813775647,2020-12-24 17:00:00,2020-12-24 17:40:00,-54.2131666666667,-137.139333333333,-54.2136666666667,-137.138666666667,19755.06176
"166","55S","Night","Meso",25,"Tunicates","Gelatinous","Salpa thompsoni - solitary juv",2,0.5,2.53099689626078e-05,0.000101239875850431,2020-12-24 17:00:00,2020-12-24 17:40:00,-54.2131666666667,-137.139333333333,-54.2136666666667,-137.138666666667,19755.06176
"167","55S","Night","Epi",27,"Amphipods","Crustacean","Cyllopus spp.",7,0.5,2.53099689626078e-05,0.000354339565476509,2020-12-25 13:23:00,2020-12-25 14:03:00,-54.1541666666667,-137.008166666667,-54.1561666666667,-137.032166666667,19755.06176
"168","55S","Night","Epi",27,"Amphipods","Crustacean","Order Amphipoda - undifferentiated",86,0.5,2.53099689626078e-05,0.00435331466156854,2020-12-25 13:23:00,2020-12-25 14:03:00,-54.1541666666667,-137.008166666667,-54.1561666666667,-137.032166666667,19755.06176
"169","55S","Night","Epi",27,"Amphipods","Crustacean","Themisto gaudichaudii",54,3,0.000151859813775647,0.00273347664796164,2020-12-25 13:23:00,2020-12-25 14:03:00,-54.1541666666667,-137.008166666667,-54.1561666666667,-137.032166666667,19755.06176
"170","55S","Night","Epi",27,"Ctenophore","Gelatinous","Euplokamis spp.",42,58,0.0029359563996625,0.00212603739285905,2020-12-25 13:23:00,2020-12-25 14:03:00,-54.1541666666667,-137.008166666667,-54.1561666666667,-137.032166666667,19755.06176
"171","55S","Night","Epi",27,"Ctenophore","Gelatinous","Phylum Ctenophora - undifferentiated",0,1390,0.0703617137160496,0,2020-12-25 13:23:00,2020-12-25 14:03:00,-54.1541666666667,-137.008166666667,-54.1561666666667,-137.032166666667,19755.06176
"172","55S","Night","Epi",27,"Fish","Fish","Larval Fish",51,1,5.06199379252156e-05,0.00258161683418599,2020-12-25 13:23:00,2020-12-25 14:03:00,-54.1541666666667,-137.008166666667,-54.1561666666667,-137.032166666667,19755.06176
"173","55S","Night","Epi",27,"Krill","Crustacean","Euphausia similis similis",183,25,0.00126549844813039,0.00926344864031445,2020-12-25 13:23:00,2020-12-25 14:03:00,-54.1541666666667,-137.008166666667,-54.1561666666667,-137.032166666667,19755.06176
"174","55S","Night","Epi",27,"Krill","Crustacean","Euphausia triacantha",166,19.5,0.000987088789541704,0.00840290969558578,2020-12-25 13:23:00,2020-12-25 14:03:00,-54.1541666666667,-137.008166666667,-54.1561666666667,-137.032166666667,19755.06176
"175","55S","Night","Epi",27,"Krill","Crustacean","Thysanoessa macrura",87,1.5,7.59299068878234e-05,0.00440393459949375,2020-12-25 13:23:00,2020-12-25 14:03:00,-54.1541666666667,-137.008166666667,-54.1561666666667,-137.032166666667,19755.06176
"176","55S","Night","Epi",27,"Medusa","Gelatinous","Hydromedusa",15,46,0.00232851714455992,0.000759299068878233,2020-12-25 13:23:00,2020-12-25 14:03:00,-54.1541666666667,-137.008166666667,-54.1561666666667,-137.032166666667,19755.06176
"177","55S","Night","Epi",27,"Other","other","eggs",0,0,0,0,2020-12-25 13:23:00,2020-12-25 14:03:00,-54.1541666666667,-137.008166666667,-54.1561666666667,-137.032166666667,19755.06176
"178","55S","Night","Epi",27,"Pteropod","other","Clio spp.",0,0,0,0,2020-12-25 13:23:00,2020-12-25 14:03:00,-54.1541666666667,-137.008166666667,-54.1561666666667,-137.032166666667,19755.06176
"179","55S","Night","Epi",27,"Pteropod","other","Styliola subula",7,0.5,2.53099689626078e-05,0.000354339565476509,2020-12-25 13:23:00,2020-12-25 14:03:00,-54.1541666666667,-137.008166666667,-54.1561666666667,-137.032166666667,19755.06176
"180","55S","Night","Epi",27,"Tunicates","Gelatinous","remainder",0,5020,0.254112088384582,0,2020-12-25 13:23:00,2020-12-25 14:03:00,-54.1541666666667,-137.008166666667,-54.1561666666667,-137.032166666667,19755.06176
"181","55S","Night","Epi",27,"Tunicates","Gelatinous","Salpa fusiformis",2,3,0.000151859813775647,0.000101239875850431,2020-12-25 13:23:00,2020-12-25 14:03:00,-54.1541666666667,-137.008166666667,-54.1561666666667,-137.032166666667,19755.06176
"182","55S","Night","Epi",27,"Tunicates","Gelatinous","Salpa thompsoni - aggregate",0,7690,0.389267322644908,0,2020-12-25 13:23:00,2020-12-25 14:03:00,-54.1541666666667,-137.008166666667,-54.1561666666667,-137.032166666667,19755.06176
"183","55S","Night","Epi",27,"Tunicates","Gelatinous","Salpa thompsoni - solitary juv",0,0,0,0,2020-12-25 13:23:00,2020-12-25 14:03:00,-54.1541666666667,-137.008166666667,-54.1561666666667,-137.032166666667,19755.06176
"184","55S","Day","Lmeso",28,"Cephalopod","Cephalopod","Cranchiidae - undifferentiated",2,0.5,8.43665632086926e-06,3.3746625283477e-05,2020-12-26 05:28:00,2020-12-26 07:28:00,-54.1746666666667,-137.076833333333,-54.211,-137.1255,59265.18528
"185","55S","Day","Lmeso",28,"Chaetognath","Chaetognath","Phylum Chaetognatha - undifferentiated",1406,408,0.00688431155782932,0.0237238775742844,2020-12-26 05:28:00,2020-12-26 07:28:00,-54.1746666666667,-137.076833333333,-54.211,-137.1255,59265.18528
"186","55S","Day","Lmeso",28,"Krill","Crustacean","Euphausiidae - undifferentiated",48,50,0.000843665632086926,0.000809919006803449,2020-12-26 05:28:00,2020-12-26 07:28:00,-54.1746666666667,-137.076833333333,-54.211,-137.1255,59265.18528
"187","55S","Day","Lmeso",28,"Medusa","Gelatinous","Hydromedusa",32,34,0.00057369262981911,0.000539946004535633,2020-12-26 05:28:00,2020-12-26 07:28:00,-54.1746666666667,-137.076833333333,-54.211,-137.1255,59265.18528
"188","55S","Day","Lmeso",28,"Prawn","Crustacean","Sergestes spp.",25,10,0.000168733126417385,0.000421832816043463,2020-12-26 05:28:00,2020-12-26 07:28:00,-54.1746666666667,-137.076833333333,-54.211,-137.1255,59265.18528
"189","55S","Day","Lmeso",28,NA,NA,"Aosellota",3,0.5,8.43665632086926e-06,5.06199379252156e-05,2020-12-26 05:28:00,2020-12-26 07:28:00,-54.1746666666667,-137.076833333333,-54.211,-137.1255,59265.18528
"190","55S","Night","Lmeso",29,"Amphipods","Crustacean","Gammaridae - undifferentiated",31,10,-7.3362228877124e-06,-2.27422909519084e-05,2020-12-28 15:44:00,2020-12-26 17:44:00,-54.2163333333333,-137.419666666667,-54.2151666666667,-137.103166666667,-1363099.26144
"191","55S","Night","Lmeso",29,"Amphipods","Crustacean","Order Amphipoda - undifferentiated",13,0.5,-3.6681114438562e-07,-9.53708975402612e-06,2020-12-28 15:44:00,2020-12-26 17:44:00,-54.2163333333333,-137.419666666667,-54.2151666666667,-137.103166666667,-1363099.26144
"192","55S","Night","Lmeso",29,"Chaetognath","Chaetognath","Phylum Chaetognatha - undifferentiated",134,58,-4.25500927487319e-05,-9.83053866953462e-05,2020-12-28 15:44:00,2020-12-26 17:44:00,-54.2163333333333,-137.419666666667,-54.2151666666667,-137.103166666667,-1363099.26144
"193","55S","Night","Lmeso",29,"Copepod","Crustacean","Subclass Copepoda - undifferentiated",10,0.5,-3.6681114438562e-07,-7.3362228877124e-06,2020-12-28 15:44:00,2020-12-26 17:44:00,-54.2163333333333,-137.419666666667,-54.2151666666667,-137.103166666667,-1363099.26144
"194","55S","Night","Lmeso",29,"Ctenophore","Gelatinous","Phylum Ctenophora - undifferentiated",110,48,-3.52138698610195e-05,-8.06984517648364e-05,2020-12-28 15:44:00,2020-12-26 17:44:00,-54.2163333333333,-137.419666666667,-54.2151666666667,-137.103166666667,-1363099.26144
"195","55S","Night","Lmeso",29,"Fish","Fish","Bathylagus sp.",16,121,-8.87682969413201e-05,-1.17379566203398e-05,2020-12-28 15:44:00,2020-12-26 17:44:00,-54.2163333333333,-137.419666666667,-54.2151666666667,-137.103166666667,-1363099.26144
"196","55S","Night","Lmeso",29,"Gymnosome","other","Order Gymnosomata - undifferentiated",3,2,-1.46724457754248e-06,-2.20086686631372e-06,2020-12-28 15:44:00,2020-12-26 17:44:00,-54.2163333333333,-137.419666666667,-54.2151666666667,-137.103166666667,-1363099.26144
"197","55S","Night","Lmeso",29,"Gymnosome","other","Spongiobranchaea australis",41,3,-2.20086686631372e-06,-3.00785138396208e-05,2020-12-28 15:44:00,2020-12-26 17:44:00,-54.2163333333333,-137.419666666667,-54.2151666666667,-137.103166666667,-1363099.26144
"198","55S","Night","Lmeso",29,"Medusa","Gelatinous","Atolla wyvillei",20,460.5,-0.000337833063979156,-1.46724457754248e-05,2020-12-28 15:44:00,2020-12-26 17:44:00,-54.2163333333333,-137.419666666667,-54.2151666666667,-137.103166666667,-1363099.26144
"199","55S","Night","Lmeso",29,"Medusa","Gelatinous","Hydromedusa",87,69,-5.06199379252156e-05,-6.38251391230979e-05,2020-12-28 15:44:00,2020-12-26 17:44:00,-54.2163333333333,-137.419666666667,-54.2151666666667,-137.103166666667,-1363099.26144
"200","55S","Night","Lmeso",29,"Medusa","Gelatinous","Periphylla periphylla",21,550,-0.000403492258824182,-1.5406068064196e-05,2020-12-28 15:44:00,2020-12-26 17:44:00,-54.2163333333333,-137.419666666667,-54.2151666666667,-137.103166666667,-1363099.26144
"201","55S","Night","Lmeso",29,"Other","other","eggs",28,2,-1.46724457754248e-06,-2.05414240855947e-05,2020-12-28 15:44:00,2020-12-26 17:44:00,-54.2163333333333,-137.419666666667,-54.2151666666667,-137.103166666667,-1363099.26144
"202","55S","Night","Lmeso",29,"pelagic gastropod","other","Class Gastropoda - undifferentiated",1,0.5,-3.6681114438562e-07,-7.3362228877124e-07,2020-12-28 15:44:00,2020-12-26 17:44:00,-54.2163333333333,-137.419666666667,-54.2151666666667,-137.103166666667,-1363099.26144
"203","55S","Night","Lmeso",29,"Prawn","Crustacean","Pasiphaea spp.",8,0.5,-3.6681114438562e-07,-5.86897831016992e-06,2020-12-28 15:44:00,2020-12-26 17:44:00,-54.2163333333333,-137.419666666667,-54.2151666666667,-137.103166666667,-1363099.26144
"204","55S","Night","Lmeso",29,"Prawn","Crustacean","Sergestes spp.",19,9,-6.60260059894116e-06,-1.39388234866536e-05,2020-12-28 15:44:00,2020-12-26 17:44:00,-54.2163333333333,-137.419666666667,-54.2151666666667,-137.103166666667,-1363099.26144
"205","55S","Night","Lmeso",29,"Pteropod","other","Clio recurva",2,0.5,-3.6681114438562e-07,-1.46724457754248e-06,2020-12-28 15:44:00,2020-12-26 17:44:00,-54.2163333333333,-137.419666666667,-54.2151666666667,-137.103166666667,-1363099.26144
"206","55S","Night","Lmeso",29,"Pteropod","other","Order Thecosomata - undifferentiated",1,0.5,-3.6681114438562e-07,-7.3362228877124e-07,2020-12-28 15:44:00,2020-12-26 17:44:00,-54.2163333333333,-137.419666666667,-54.2151666666667,-137.103166666667,-1363099.26144
"207","55S","Night","Lmeso",29,"Siphonophore","Gelatinous","Order Siphonophora - undifferentiated",1,310,-0.000227422909519084,-7.3362228877124e-07,2020-12-28 15:44:00,2020-12-26 17:44:00,-54.2163333333333,-137.419666666667,-54.2151666666667,-137.103166666667,-1363099.26144
"208","55S","Night","Lmeso",29,"Tunicates","Gelatinous","Salpa thompsoni - aggregate",60,378,-0.000277309225155529,-4.40173373262744e-05,2020-12-28 15:44:00,2020-12-26 17:44:00,-54.2163333333333,-137.419666666667,-54.2151666666667,-137.103166666667,-1363099.26144
"209","55S","Night","Lmeso",29,"Tunicates","Gelatinous","Salpa thompsoni - solitary",3,61,-4.47509596150456e-05,-2.20086686631372e-06,2020-12-28 15:44:00,2020-12-26 17:44:00,-54.2163333333333,-137.419666666667,-54.2151666666667,-137.103166666667,-1363099.26144
"210","55S","Night","Lmeso",29,"Tunicates","Gelatinous","Salpa thompsoni - solitary juv",3,1,-7.3362228877124e-07,-2.20086686631372e-06,2020-12-28 15:44:00,2020-12-26 17:44:00,-54.2163333333333,-137.419666666667,-54.2151666666667,-137.103166666667,-1363099.26144
"211","55S","Night","Lmeso",29,"worms","other","Class Polychaeta - undifferentiated",32,15,-1.10043343315686e-05,-2.34759132406797e-05,2020-12-28 15:44:00,2020-12-26 17:44:00,-54.2163333333333,-137.419666666667,-54.2151666666667,-137.103166666667,-1363099.26144
"212","55S","Day","Lmeso",30,"Amphipods","Crustacean","Cyllopus spp.",1,0.5,1.07245631197491e-06,2.14491262394981e-06,2020-12-27 02:28:00,2020-12-27 18:12:00,-54.164,-137.236666666667,-54.1838333333333,-137.337,466219.457536
"213","55S","Day","Lmeso",30,"Amphipods","Crustacean","Primno spp.",3,0.5,1.07245631197491e-06,6.43473787184944e-06,2020-12-27 02:28:00,2020-12-27 18:12:00,-54.164,-137.236666666667,-54.1838333333333,-137.337,466219.457536
"214","55S","Day","Lmeso",30,"Amphipods","Crustacean","Themisto gaudichaudii",3,0.5,1.07245631197491e-06,6.43473787184944e-06,2020-12-27 02:28:00,2020-12-27 18:12:00,-54.164,-137.236666666667,-54.1838333333333,-137.337,466219.457536
"215","55S","Day","Lmeso",30,"Amphipods","Crustacean","Vibilia spp.",2,0.5,1.07245631197491e-06,4.28982524789963e-06,2020-12-27 02:28:00,2020-12-27 18:12:00,-54.164,-137.236666666667,-54.1838333333333,-137.337,466219.457536
"216","55S","Day","Lmeso",30,"Chaetognath","Chaetognath","Phylum Chaetognatha - undifferentiated",816,170,0.000364635146071468,0.00175024870114305,2020-12-27 02:28:00,2020-12-27 18:12:00,-54.164,-137.236666666667,-54.1838333333333,-137.337,466219.457536
"217","55S","Day","Lmeso",30,"Copepod","Crustacean","Calanoides spp.",12,0.5,1.07245631197491e-06,2.57389514873977e-05,2020-12-27 02:28:00,2020-12-27 18:12:00,-54.164,-137.236666666667,-54.1838333333333,-137.337,466219.457536
"218","55S","Day","Lmeso",30,"Copepod","Crustacean","Eusirella spp",1,0.5,1.07245631197491e-06,2.14491262394981e-06,2020-12-27 02:28:00,2020-12-27 18:12:00,-54.164,-137.236666666667,-54.1838333333333,-137.337,466219.457536
"219","55S","Day","Lmeso",30,"Fish","Fish","Gymnoscopelus braueri",8,0.5,1.07245631197491e-06,1.71593009915985e-05,2020-12-27 02:28:00,2020-12-27 18:12:00,-54.164,-137.236666666667,-54.1838333333333,-137.337,466219.457536
"220","55S","Day","Lmeso",30,"Fish","Fish","Nannobrachium spp.",9,38,8.15066797100929e-05,1.93042136155483e-05,2020-12-27 02:28:00,2020-12-27 18:12:00,-54.164,-137.236666666667,-54.1838333333333,-137.337,466219.457536
"221","55S","Day","Lmeso",30,"Fish","Fish","Protomyctophum sp.",1,0.5,1.07245631197491e-06,2.14491262394981e-06,2020-12-27 02:28:00,2020-12-27 18:12:00,-54.164,-137.236666666667,-54.1838333333333,-137.337,466219.457536
"222","55S","Day","Lmeso",30,"Gymnosome","other","Spongiobranchaea australis",4,0.5,1.07245631197491e-06,8.57965049579925e-06,2020-12-27 02:28:00,2020-12-27 18:12:00,-54.164,-137.236666666667,-54.1838333333333,-137.337,466219.457536
"223","55S","Day","Lmeso",30,"Medusa","Gelatinous","Hydromedusa",7,13,2.78838641113476e-05,1.50143883676487e-05,2020-12-27 02:28:00,2020-12-27 18:12:00,-54.164,-137.236666666667,-54.1838333333333,-137.337,466219.457536
"224","55S","Day","Lmeso",30,"pelagic gastropod","other","Danilia spp.",1,0.5,1.07245631197491e-06,2.14491262394981e-06,2020-12-27 02:28:00,2020-12-27 18:12:00,-54.164,-137.236666666667,-54.1838333333333,-137.337,466219.457536
"225","55S","Day","Lmeso",30,"Prawn","Crustacean","Pasiphaea spp.",1,0.5,1.07245631197491e-06,2.14491262394981e-06,2020-12-27 02:28:00,2020-12-27 18:12:00,-54.164,-137.236666666667,-54.1838333333333,-137.337,466219.457536
"226","55S","Day","Lmeso",30,"Pteropod","other","Styliola subula",1,0.5,1.07245631197491e-06,2.14491262394981e-06,2020-12-27 02:28:00,2020-12-27 18:12:00,-54.164,-137.236666666667,-54.1838333333333,-137.337,466219.457536
"227","55S","Day","Lmeso",30,"Siphonophore","Gelatinous","Order Siphonophora - undifferentiated",1,0.5,1.07245631197491e-06,2.14491262394981e-06,2020-12-27 02:28:00,2020-12-27 18:12:00,-54.164,-137.236666666667,-54.1838333333333,-137.337,466219.457536
"228","55S","Day","Lmeso",30,"Tunicates","Gelatinous","Salpa fusiformis",40,70,0.000150143883676487,8.57965049579925e-05,2020-12-27 02:28:00,2020-12-27 18:12:00,-54.164,-137.236666666667,-54.1838333333333,-137.337,466219.457536
"229","55S","Day","Lmeso",30,"Tunicates","Gelatinous","Salpa thompsoni - solitary juv",6,2,4.28982524789963e-06,1.28694757436989e-05,2020-12-27 02:28:00,2020-12-27 18:12:00,-54.164,-137.236666666667,-54.1838333333333,-137.337,466219.457536
"230","55S","Night","Epi",31,"Amphipods","Crustacean","Order Amphipoda - undifferentiated",31,1.5,7.59299068878234e-05,0.00156921807568168,2020-12-28 03:16:00,2020-12-28 03:56:00,-54.2031666666667,-137.402333333333,-54.204,-137.416333333333,19755.06176
"231","55S","Night","Epi",31,"Ctenophore","Gelatinous","Euplokamis spp.",1,0.5,2.53099689626078e-05,5.06199379252156e-05,2020-12-28 03:16:00,2020-12-28 03:56:00,-54.2031666666667,-137.402333333333,-54.204,-137.416333333333,19755.06176
"232","55S","Night","Epi",31,"Ctenophore","Gelatinous","Phylum Ctenophora - undifferentiated",17,0.5,2.53099689626078e-05,0.000860538944728665,2020-12-28 03:16:00,2020-12-28 03:56:00,-54.2031666666667,-137.402333333333,-54.204,-137.416333333333,19755.06176
"233","55S","Night","Epi",31,"Fish","Fish","Larval Fish",21,1,5.06199379252156e-05,0.00106301869642953,2020-12-28 03:16:00,2020-12-28 03:56:00,-54.2031666666667,-137.402333333333,-54.204,-137.416333333333,19755.06176
"234","55S","Night","Epi",31,"Gymnosome","other","Spongiobranchaea australis",2,0.5,2.53099689626078e-05,0.000101239875850431,2020-12-28 03:16:00,2020-12-28 03:56:00,-54.2031666666667,-137.402333333333,-54.204,-137.416333333333,19755.06176
"235","55S","Night","Epi",31,"Krill","Crustacean","Thysanoessa macrura",3,0.5,2.53099689626078e-05,0.000151859813775647,2020-12-28 03:16:00,2020-12-28 03:56:00,-54.2031666666667,-137.402333333333,-54.204,-137.416333333333,19755.06176
"236","55S","Night","Epi",31,"Medusa","Gelatinous","Hydromedusa",1,0.5,2.53099689626078e-05,5.06199379252156e-05,2020-12-28 03:16:00,2020-12-28 03:56:00,-54.2031666666667,-137.402333333333,-54.204,-137.416333333333,19755.06176
"237","55S","Night","Epi",31,"Other","other","eggs",13,1,5.06199379252156e-05,0.000658059193027802,2020-12-28 03:16:00,2020-12-28 03:56:00,-54.2031666666667,-137.402333333333,-54.204,-137.416333333333,19755.06176
"238","55S","Night","Epi",31,"Siphonophore","Gelatinous","Rosacea spp.",1,0.5,2.53099689626078e-05,5.06199379252156e-05,2020-12-28 03:16:00,2020-12-28 03:56:00,-54.2031666666667,-137.402333333333,-54.204,-137.416333333333,19755.06176
"239","55S","Night","Epi",31,"Tunicates","Gelatinous","remainder",0,79,0.00399897509609203,0,2020-12-28 03:16:00,2020-12-28 03:56:00,-54.2031666666667,-137.402333333333,-54.204,-137.416333333333,19755.06176
"240","55S","Night","Epi",31,"Tunicates","Gelatinous","Salpa fusiformis",18,28,0.00141735826190604,0.00091115888265388,2020-12-28 03:16:00,2020-12-28 03:56:00,-54.2031666666667,-137.402333333333,-54.204,-137.416333333333,19755.06176
"241","55S","Night","Epi",31,"Tunicates","Gelatinous","Salpa thompsoni - aggregate",593,1780,0.0901034895068837,0.0300176231896528,2020-12-28 03:16:00,2020-12-28 03:56:00,-54.2031666666667,-137.402333333333,-54.204,-137.416333333333,19755.06176
"242","55S","Night","Epi",31,"Tunicates","Gelatinous","Salpa thompsoni - solitary",6,136,0.00688431155782932,0.000303719627551293,2020-12-28 03:16:00,2020-12-28 03:56:00,-54.2031666666667,-137.402333333333,-54.204,-137.416333333333,19755.06176
"243","55S","Night","Epi",31,"Tunicates","Gelatinous","Salpa thompsoni - solitary juv",2,1,5.06199379252156e-05,0.000101239875850431,2020-12-28 03:16:00,2020-12-28 03:56:00,-54.2031666666667,-137.402333333333,-54.204,-137.416333333333,19755.06176
"244","55S","Night","Epi",31,"Tunicates","Gelatinous","Salpidae - undifferentiated",1,0.5,2.53099689626078e-05,5.06199379252156e-05,2020-12-28 03:16:00,2020-12-28 03:56:00,-54.2031666666667,-137.402333333333,-54.204,-137.416333333333,19755.06176
"245","55S","Night","Epi",31,"worms","other","Class Polychaeta - undifferentiated",3,0.5,2.53099689626078e-05,0.000151859813775647,2020-12-28 03:16:00,2020-12-28 03:56:00,-54.2031666666667,-137.402333333333,-54.204,-137.416333333333,19755.06176
"246","55S","Night","Epi",31,"worms","other","Tomopteris spp.",4,0.5,2.53099689626078e-05,0.000202479751700862,2020-12-28 03:16:00,2020-12-28 03:56:00,-54.2031666666667,-137.402333333333,-54.204,-137.416333333333,19755.06176
"247","55S","Day","Meso",32,"Amphipods","Crustacean","Cyllopus spp.",41,0.5,2.53099689626078e-05,0.00207541745493384,2020-12-28 22:51:00,2020-12-28 23:31:00,-54.2106666666667,-137.433666666667,-54.201,-137.449,19755.06176
"248","55S","Day","Meso",32,"Amphipods","Crustacean","Order Amphipoda - undifferentiated",16,0.5,2.53099689626078e-05,0.000809919006803449,2020-12-28 22:51:00,2020-12-28 23:31:00,-54.2106666666667,-137.433666666667,-54.201,-137.449,19755.06176
"249","55S","Day","Meso",32,"Amphipods","Crustacean","Themisto gaudichaudii",5,0.5,2.53099689626078e-05,0.000253099689626078,2020-12-28 22:51:00,2020-12-28 23:31:00,-54.2106666666667,-137.433666666667,-54.201,-137.449,19755.06176
"250","55S","Day","Meso",32,"Fish","Fish","Electrona antarctica",1,0.5,2.53099689626078e-05,5.06199379252156e-05,2020-12-28 22:51:00,2020-12-28 23:31:00,-54.2106666666667,-137.433666666667,-54.201,-137.449,19755.06176
"251","55S","Day","Meso",32,"Gymnosome","other","Spongiobranchaea australis",45,0.5,2.53099689626078e-05,0.0022778972066347,2020-12-28 22:51:00,2020-12-28 23:31:00,-54.2106666666667,-137.433666666667,-54.201,-137.449,19755.06176
"252","55S","Day","Meso",32,"Krill","Crustacean","Euphausia triacantha",2,0.5,2.53099689626078e-05,0.000101239875850431,2020-12-28 22:51:00,2020-12-28 23:31:00,-54.2106666666667,-137.433666666667,-54.201,-137.449,19755.06176
"253","55S","Day","Meso",32,"Krill","Crustacean","Thysanoessa macrura",3,0.5,2.53099689626078e-05,0.000151859813775647,2020-12-28 22:51:00,2020-12-28 23:31:00,-54.2106666666667,-137.433666666667,-54.201,-137.449,19755.06176
"254","55S","Day","Meso",32,"Medusa","Gelatinous","Hydromedusa",23,88,0.00445455453741897,0.00116425857227996,2020-12-28 22:51:00,2020-12-28 23:31:00,-54.2106666666667,-137.433666666667,-54.201,-137.449,19755.06176
"255","55S","Day","Meso",32,"Other","other","eggs",2,0.5,2.53099689626078e-05,0.000101239875850431,2020-12-28 22:51:00,2020-12-28 23:31:00,-54.2106666666667,-137.433666666667,-54.201,-137.449,19755.06176
"256","55S","Day","Meso",32,"Siphonophore","Gelatinous","Amphicaryon acaule",0,203,0.0102758473988188,0,2020-12-28 22:51:00,2020-12-28 23:31:00,-54.2106666666667,-137.433666666667,-54.201,-137.449,19755.06176
"257","55S","Day","Meso",32,"Siphonophore","Gelatinous","Rosacea plicata",0,406,0.0205516947976375,0,2020-12-28 22:51:00,2020-12-28 23:31:00,-54.2106666666667,-137.433666666667,-54.201,-137.449,19755.06176
"258","55S","Day","Meso",32,"Tunicates","Gelatinous","remainder",0,96,0.00485951404082069,0,2020-12-28 22:51:00,2020-12-28 23:31:00,-54.2106666666667,-137.433666666667,-54.201,-137.449,19755.06176
"259","55S","Day","Meso",32,"Tunicates","Gelatinous","Salpa thompsoni - solitary juv",4,17,0.000860538944728665,0.000202479751700862,2020-12-28 22:51:00,2020-12-28 23:31:00,-54.2106666666667,-137.433666666667,-54.201,-137.449,19755.06176
"260","55S","Day","Epi",33,"Amphipods","Crustacean","Themisto gaudichaudii",3,0.5,0.000506199379252156,0.00303719627551293,2020-12-30 18:25:00,2020-12-30 18:27:00,-54.196,-137.624333333333,-54.1961666666667,-137.624666666667,987.753088
"261","55S","Day","Epi",33,"Amphipods","Crustacean","Vibilia spp.",10,0.5,0.000506199379252156,0.0101239875850431,2020-12-30 18:25:00,2020-12-30 18:27:00,-54.196,-137.624333333333,-54.1961666666667,-137.624666666667,987.753088
"262","55S","Day","Epi",33,"Chaetognath","Chaetognath","Phylum Chaetognatha - undifferentiated",8,0.5,0.000506199379252156,0.00809919006803449,2020-12-30 18:25:00,2020-12-30 18:27:00,-54.196,-137.624333333333,-54.1961666666667,-137.624666666667,987.753088
"263","55S","Day","Epi",33,"Ctenophore","Gelatinous","Beroe spp.",0,0.5,0.000506199379252156,0,2020-12-30 18:25:00,2020-12-30 18:27:00,-54.196,-137.624333333333,-54.1961666666667,-137.624666666667,987.753088
"264","55S","Day","Epi",33,"Fish","Fish","Larval Fish",1,0.5,0.000506199379252156,0.00101239875850431,2020-12-30 18:25:00,2020-12-30 18:27:00,-54.196,-137.624333333333,-54.1961666666667,-137.624666666667,987.753088
"265","55S","Day","Epi",33,"Krill","Crustacean","Euphausia spp.",1,0.5,0.000506199379252156,0.00101239875850431,2020-12-30 18:25:00,2020-12-30 18:27:00,-54.196,-137.624333333333,-54.1961666666667,-137.624666666667,987.753088
"266","55S","Day","Epi",33,"Tunicates","Gelatinous","Salpa thompsoni - aggregate",438,773,0.782584240323833,0.443430656224888,2020-12-30 18:25:00,2020-12-30 18:27:00,-54.196,-137.624333333333,-54.1961666666667,-137.624666666667,987.753088
"267","55S","Night","Meso",34,"Amphipods","Crustacean","Order Amphipoda - undifferentiated",1,0.5,2.53099689626078e-05,5.06199379252156e-05,2020-12-29 13:42:00,2020-12-29 14:22:00,-54.1721666666667,-137.414333333333,-54.1748333333333,-137.437666666667,19755.06176
"268","55S","Night","Meso",34,"Amphipods","Crustacean","Parandania boecki",10,2,0.000101239875850431,0.000506199379252156,2020-12-29 13:42:00,2020-12-29 14:22:00,-54.1721666666667,-137.414333333333,-54.1748333333333,-137.437666666667,19755.06176
"269","55S","Night","Meso",34,"Chaetognath","Chaetognath","Phylum Chaetognatha - undifferentiated",61,3.5,0.000177169782738254,0.00308781621343815,2020-12-29 13:42:00,2020-12-29 14:22:00,-54.1721666666667,-137.414333333333,-54.1748333333333,-137.437666666667,19755.06176
"270","55S","Night","Meso",34,"Fish","Fish","Larval Fish",6,0.5,2.53099689626078e-05,0.000303719627551293,2020-12-29 13:42:00,2020-12-29 14:22:00,-54.1721666666667,-137.414333333333,-54.1748333333333,-137.437666666667,19755.06176
"271","55S","Night","Meso",34,"Gymnosome","other","Order Gymnosomata - undifferentiated",4,1,5.06199379252156e-05,0.000202479751700862,2020-12-29 13:42:00,2020-12-29 14:22:00,-54.1721666666667,-137.414333333333,-54.1748333333333,-137.437666666667,19755.06176
"272","55S","Night","Meso",34,"Gymnosome","other","Spongiobranchaea australis",8,0.5,2.53099689626078e-05,0.000404959503401725,2020-12-29 13:42:00,2020-12-29 14:22:00,-54.1721666666667,-137.414333333333,-54.1748333333333,-137.437666666667,19755.06176
"273","55S","Night","Meso",34,"Krill","Crustacean","Thysanoessa macrura",44,1,5.06199379252156e-05,0.00222727726870948,2020-12-29 13:42:00,2020-12-29 14:22:00,-54.1721666666667,-137.414333333333,-54.1748333333333,-137.437666666667,19755.06176
"274","55S","Night","Meso",34,"Medusa","Gelatinous","Calycopsis spp.",1,3,0.000151859813775647,5.06199379252156e-05,2020-12-29 13:42:00,2020-12-29 14:22:00,-54.1721666666667,-137.414333333333,-54.1748333333333,-137.437666666667,19755.06176
"275","55S","Night","Meso",34,"Medusa","Gelatinous","Hydromedusa",3,36,0.00182231776530776,0.000151859813775647,2020-12-29 13:42:00,2020-12-29 14:22:00,-54.1721666666667,-137.414333333333,-54.1748333333333,-137.437666666667,19755.06176
"276","55S","Night","Meso",34,"Prawn","Crustacean","Pasiphaea spp.",1,0.5,2.53099689626078e-05,5.06199379252156e-05,2020-12-29 13:42:00,2020-12-29 14:22:00,-54.1721666666667,-137.414333333333,-54.1748333333333,-137.437666666667,19755.06176
"277","55S","Night","Meso",34,"Siphonophore","Gelatinous","Amphicaryon acaule",0,430,0.0217665733078427,0,2020-12-29 13:42:00,2020-12-29 14:22:00,-54.1721666666667,-137.414333333333,-54.1748333333333,-137.437666666667,19755.06176
"278","55S","Night","Meso",34,"Tunicates","Gelatinous","Salpa thompsoni - aggregate",284,515,0.026069268031486,0.0143760623707612,2020-12-29 13:42:00,2020-12-29 14:22:00,-54.1721666666667,-137.414333333333,-54.1748333333333,-137.437666666667,19755.06176
"279","55S","Night","Meso",34,"Tunicates","Gelatinous","Salpa thompsoni - solitary",5,70,0.00354339565476509,0.000253099689626078,2020-12-29 13:42:00,2020-12-29 14:22:00,-54.1721666666667,-137.414333333333,-54.1748333333333,-137.437666666667,19755.06176
"280","55S","Night","Meso",34,"worms","other","Class Polychaeta - undifferentiated",1,0.5,2.53099689626078e-05,5.06199379252156e-05,2020-12-29 13:42:00,2020-12-29 14:22:00,-54.1721666666667,-137.414333333333,-54.1748333333333,-137.437666666667,19755.06176
"281","55S","Night","Lmeso",35,"Amphipods","Crustacean","Order Amphipoda - undifferentiated",1,0.5,8.43665632086926e-06,1.68733126417385e-05,2020-12-30 15:43:00,2020-12-30 17:43:00,-54.1705,-137.562833333333,-54.1906666666667,-137.6135,59265.18528
"282","55S","Night","Lmeso",35,"Cephalopod","Cephalopod","Sepiolidae - undifferentiated",0,0,0,0,2020-12-30 15:43:00,2020-12-30 17:43:00,-54.1705,-137.562833333333,-54.1906666666667,-137.6135,59265.18528
"283","55S","Night","Lmeso",35,"Chaetognath","Chaetognath","Phylum Chaetognatha - undifferentiated",1856,334,0.00563568642234067,0.0313168682630667,2020-12-30 15:43:00,2020-12-30 17:43:00,-54.1705,-137.562833333333,-54.1906666666667,-137.6135,59265.18528
"284","55S","Night","Lmeso",35,"Fish","Fish","Bathylagus sp.",4,99,0.00167045795153211,6.74932505669541e-05,2020-12-30 15:43:00,2020-12-30 17:43:00,-54.1705,-137.562833333333,-54.1906666666667,-137.6135,59265.18528
"285","55S","Night","Lmeso",35,"Fish","Fish","Paralepididae - undifferentiated",2,0.5,8.43665632086926e-06,3.3746625283477e-05,2020-12-30 15:43:00,2020-12-30 17:43:00,-54.1705,-137.562833333333,-54.1906666666667,-137.6135,59265.18528
"286","55S","Night","Lmeso",35,"Gymnosome","other","Spongiobranchaea australis",19,0.5,8.43665632086926e-06,0.000320592940193032,2020-12-30 15:43:00,2020-12-30 17:43:00,-54.1705,-137.562833333333,-54.1906666666667,-137.6135,59265.18528
"287","55S","Night","Lmeso",35,"Medusa","Gelatinous","Atolla wyvillei",7,2,3.3746625283477e-05,0.00011811318849217,2020-12-30 15:43:00,2020-12-30 17:43:00,-54.1705,-137.562833333333,-54.1906666666667,-137.6135,59265.18528
"288","55S","Night","Lmeso",35,"Medusa","Gelatinous","Calycopsis spp.",2,1,1.68733126417385e-05,3.3746625283477e-05,2020-12-30 15:43:00,2020-12-30 17:43:00,-54.1705,-137.562833333333,-54.1906666666667,-137.6135,59265.18528
"289","55S","Night","Lmeso",35,"Medusa","Gelatinous","Cuninidae - undifferentiated",1,0.5,8.43665632086926e-06,1.68733126417385e-05,2020-12-30 15:43:00,2020-12-30 17:43:00,-54.1705,-137.562833333333,-54.1906666666667,-137.6135,59265.18528
"290","55S","Night","Lmeso",35,"Medusa","Gelatinous","Halicreatidae - undifferentiated",17,30,0.000506199379252156,0.000286846314909555,2020-12-30 15:43:00,2020-12-30 17:43:00,-54.1705,-137.562833333333,-54.1906666666667,-137.6135,59265.18528
"291","55S","Night","Lmeso",35,"Medusa","Gelatinous","Hydromedusa",37,11.5,0.000194043095379993,0.000624312567744325,2020-12-30 15:43:00,2020-12-30 17:43:00,-54.1705,-137.562833333333,-54.1906666666667,-137.6135,59265.18528
"292","55S","Night","Lmeso",35,"Medusa","Gelatinous","Pegantha spp.",3,45,0.000759299068878233,5.06199379252156e-05,2020-12-30 15:43:00,2020-12-30 17:43:00,-54.1705,-137.562833333333,-54.1906666666667,-137.6135,59265.18528
"293","55S","Night","Lmeso",35,"Medusa","Gelatinous","Periphylla periphylla",4,0,0,6.74932505669541e-05,2020-12-30 15:43:00,2020-12-30 17:43:00,-54.1705,-137.562833333333,-54.1906666666667,-137.6135,59265.18528
"294","55S","Night","Lmeso",35,"Ostocod","Ostocod","Gigantocypris spp.",0,0,0,0,2020-12-30 15:43:00,2020-12-30 17:43:00,-54.1705,-137.562833333333,-54.1906666666667,-137.6135,59265.18528
"295","55S","Night","Lmeso",35,"Other","other","eggs",7,0.5,8.43665632086926e-06,0.00011811318849217,2020-12-30 15:43:00,2020-12-30 17:43:00,-54.1705,-137.562833333333,-54.1906666666667,-137.6135,59265.18528
"296","55S","Night","Lmeso",35,"Prawn","Crustacean","Sergestes spp.",13,11,0.000185606439059124,0.000219353064342601,2020-12-30 15:43:00,2020-12-30 17:43:00,-54.1705,-137.562833333333,-54.1906666666667,-137.6135,59265.18528
"297","55S","Night","Lmeso",35,"Pteropod","other","Limacina spp.",1,0.5,8.43665632086926e-06,1.68733126417385e-05,2020-12-30 15:43:00,2020-12-30 17:43:00,-54.1705,-137.562833333333,-54.1906666666667,-137.6135,59265.18528
"298","55S","Night","Lmeso",35,"Siphonophore","Gelatinous","Amphicaryon spp.",0,225,0.00379649534439117,0,2020-12-30 15:43:00,2020-12-30 17:43:00,-54.1705,-137.562833333333,-54.1906666666667,-137.6135,59265.18528
"299","55S","Night","Lmeso",35,"Siphonophore","Gelatinous","Rosacea spp.",0,225,0.00379649534439117,0,2020-12-30 15:43:00,2020-12-30 17:43:00,-54.1705,-137.562833333333,-54.1906666666667,-137.6135,59265.18528
"300","55S","Night","Lmeso",35,"Tunicates","Gelatinous","Salpa thompsoni - aggregate",800,2165,0.0365307218693639,0.0134986501133908,2020-12-30 15:43:00,2020-12-30 17:43:00,-54.1705,-137.562833333333,-54.1906666666667,-137.6135,59265.18528
"301","55S","Night","Lmeso",35,"Tunicates","Gelatinous","Salpa thompsoni - solitary",10,190,0.00320592940193032,0.000168733126417385,2020-12-30 15:43:00,2020-12-30 17:43:00,-54.1705,-137.562833333333,-54.1906666666667,-137.6135,59265.18528
"302","55S","Night","Lmeso",35,"Tunicates","Gelatinous","Salpa thompsoni - solitary juv",64,32,0.000539946004535633,0.00107989200907127,2020-12-30 15:43:00,2020-12-30 17:43:00,-54.1705,-137.562833333333,-54.1906666666667,-137.6135,59265.18528
"303","55S","Night","Lmeso",35,"worms","other","Class Polychaeta - undifferentiated",2,1,1.68733126417385e-05,3.3746625283477e-05,2020-12-30 15:43:00,2020-12-30 17:43:00,-54.1705,-137.562833333333,-54.1906666666667,-137.6135,59265.18528
"304","55S","Night","Lmeso",35,"worms","other","Pelagonemertes spp.",12,10,0.000168733126417385,0.000202479751700862,2020-12-30 15:43:00,2020-12-30 17:43:00,-54.1705,-137.562833333333,-54.1906666666667,-137.6135,59265.18528
"305","55S","Day","Lmeso",36,"Chaetognath","Chaetognath","Phylum Chaetognatha - undifferentiated",930,335,0.00565255973498241,0.0156921807568168,2020-12-31 01:36:00,2020-12-31 03:36:00,-54.1133333333333,-137.563666666667,-54.1341666666667,-137.612833333333,59265.18528
"306","55S","Day","Lmeso",36,"Ctenophore","Gelatinous","Phylum Ctenophora - undifferentiated",0,460,0.00776172381519972,0,2020-12-31 01:36:00,2020-12-31 03:36:00,-54.1133333333333,-137.563666666667,-54.1341666666667,-137.612833333333,59265.18528
"307","55S","Day","Lmeso",36,"Fish","Fish","Bathylagus sp.",2,60,0.00101239875850431,3.3746625283477e-05,2020-12-31 01:36:00,2020-12-31 03:36:00,-54.1133333333333,-137.563666666667,-54.1341666666667,-137.612833333333,59265.18528
"308","55S","Day","Lmeso",36,"Isopods","Crustacean","Order Isopoda - undifferentiated",2,0.5,8.43665632086926e-06,3.3746625283477e-05,2020-12-31 01:36:00,2020-12-31 03:36:00,-54.1133333333333,-137.563666666667,-54.1341666666667,-137.612833333333,59265.18528
"309","55S","Day","Lmeso",36,"Medusa","Gelatinous","Hydromedusa",117,65,0.001096765321713,0.00197417757908341,2020-12-31 01:36:00,2020-12-31 03:36:00,-54.1133333333333,-137.563666666667,-54.1341666666667,-137.612833333333,59265.18528
"310","55S","Day","Lmeso",36,"Prawn","Crustacean","Sergestes spp.",30,7,0.00011811318849217,0.000506199379252156,2020-12-31 01:36:00,2020-12-31 03:36:00,-54.1133333333333,-137.563666666667,-54.1341666666667,-137.612833333333,59265.18528
"311","55S","Day","Lmeso",36,"Tunicates","Gelatinous","Salpa spp.",5,12,0.000202479751700862,8.43665632086926e-05,2020-12-31 01:36:00,2020-12-31 03:36:00,-54.1133333333333,-137.563666666667,-54.1341666666667,-137.612833333333,59265.18528
"312","55S","Day","Lmeso",36,NA,NA,"Pelagic worm",27,25,0.000421832816043463,0.00045557944132694,2020-12-31 01:36:00,2020-12-31 03:36:00,-54.1133333333333,-137.563666666667,-54.1341666666667,-137.612833333333,59265.18528
"313","58S","Night","Epi",37,"Amphipods","Crustacean","Themisto gaudichaudii",3175,63,0.00318905608928858,0.160718302912559,2021-01-01 14:08:00,2021-01-01 14:48:00,-57.9858333333333,-140.762333333333,-57.9943333333333,-140.781166666667,19755.06176
"314","58S","Night","Epi",37,"Copepod","Crustacean","Subclass Copepoda - undifferentiated",1,0.5,2.53099689626078e-05,5.06199379252156e-05,2021-01-01 14:08:00,2021-01-01 14:48:00,-57.9858333333333,-140.762333333333,-57.9943333333333,-140.781166666667,19755.06176
"315","58S","Night","Epi",37,"Ctenophore","Gelatinous","Beroe spp.",2,1,5.06199379252156e-05,0.000101239875850431,2021-01-01 14:08:00,2021-01-01 14:48:00,-57.9858333333333,-140.762333333333,-57.9943333333333,-140.781166666667,19755.06176
"316","58S","Night","Epi",37,"Ctenophore","Gelatinous","Phylum Ctenophora - undifferentiated",1,0.5,2.53099689626078e-05,5.06199379252156e-05,2021-01-01 14:08:00,2021-01-01 14:48:00,-57.9858333333333,-140.762333333333,-57.9943333333333,-140.781166666667,19755.06176
"317","58S","Night","Epi",37,"Fish","Fish","Paradiplospinus spp.",1,10,0.000506199379252156,5.06199379252156e-05,2021-01-01 14:08:00,2021-01-01 14:48:00,-57.9858333333333,-140.762333333333,-57.9943333333333,-140.781166666667,19755.06176
"318","58S","Night","Epi",37,"Gymnosome","other","Order Gymnosomata - undifferentiated",4,0.5,2.53099689626078e-05,0.000202479751700862,2021-01-01 14:08:00,2021-01-01 14:48:00,-57.9858333333333,-140.762333333333,-57.9943333333333,-140.781166666667,19755.06176
"319","58S","Night","Epi",37,"Krill","Crustacean","Euphausia similis similis",448,28,0.00141735826190604,0.0226777321904966,2021-01-01 14:08:00,2021-01-01 14:48:00,-57.9858333333333,-140.762333333333,-57.9943333333333,-140.781166666667,19755.06176
"320","58S","Night","Epi",37,"Krill","Crustacean","Euphausia triacantha",465,82,0.00415083490986768,0.0235382711352252,2021-01-01 14:08:00,2021-01-01 14:48:00,-57.9858333333333,-140.762333333333,-57.9943333333333,-140.781166666667,19755.06176
"321","58S","Night","Epi",37,"Krill","Crustacean","Thysanoessa macrura",1,0.5,2.53099689626078e-05,5.06199379252156e-05,2021-01-01 14:08:00,2021-01-01 14:48:00,-57.9858333333333,-140.762333333333,-57.9943333333333,-140.781166666667,19755.06176
"322","58S","Night","Epi",37,"Medusa","Gelatinous","Hydromedusa",17,36,0.00182231776530776,0.000860538944728665,2021-01-01 14:08:00,2021-01-01 14:48:00,-57.9858333333333,-140.762333333333,-57.9943333333333,-140.781166666667,19755.06176
"323","58S","Night","Epi",37,"Other","other","eggs",18,1,5.06199379252156e-05,0.00091115888265388,2021-01-01 14:08:00,2021-01-01 14:48:00,-57.9858333333333,-140.762333333333,-57.9943333333333,-140.781166666667,19755.06176
"324","58S","Night","Epi",37,"Tunicates","Gelatinous","Salpa fusiformis",27,60,0.00303719627551293,0.00136673832398082,2021-01-01 14:08:00,2021-01-01 14:48:00,-57.9858333333333,-140.762333333333,-57.9943333333333,-140.781166666667,19755.06176
"325","58S","Night","Epi",37,"Tunicates","Gelatinous","Salpa thompsoni - aggregate",161,1240,0.0627687230272673,0.00814981000595971,2021-01-01 14:08:00,2021-01-01 14:48:00,-57.9858333333333,-140.762333333333,-57.9943333333333,-140.781166666667,19755.06176
"326","58S","Night","Epi",37,"Tunicates","Gelatinous","Salpa thompsoni - solitary",15,140,0.00708679130953018,0.000759299068878233,2021-01-01 14:08:00,2021-01-01 14:48:00,-57.9858333333333,-140.762333333333,-57.9943333333333,-140.781166666667,19755.06176
"327","58S","Night","Epi",37,"Tunicates","Gelatinous","Salpa thompsoni - solitary juv",28,30,0.00151859813775647,0.00141735826190604,2021-01-01 14:08:00,2021-01-01 14:48:00,-57.9858333333333,-140.762333333333,-57.9943333333333,-140.781166666667,19755.06176
"328","58S","Night","Epi",37,"worms","other","Class Polychaeta - undifferentiated",1,0.5,2.53099689626078e-05,5.06199379252156e-05,2021-01-01 14:08:00,2021-01-01 14:48:00,-57.9858333333333,-140.762333333333,-57.9943333333333,-140.781166666667,19755.06176
"329","58S","Day","Meso",38,"Ctenophore","Gelatinous","Euplokamis spp.",62,90,0.0045557944132694,0.00313843615136337,2021-01-01 22:38:00,2021-01-01 23:18:00,-57.9791666666667,-140.7305,-57.9861666666667,-140.749833333333,19755.06176
"330","58S","Day","Meso",38,"Gymnosome","other","Order Gymnosomata - undifferentiated",4,0.5,2.53099689626078e-05,0.000202479751700862,2021-01-01 22:38:00,2021-01-01 23:18:00,-57.9791666666667,-140.7305,-57.9861666666667,-140.749833333333,19755.06176
"331","58S","Day","Meso",38,"Gymnosome","other","Spongiobranchaea australis",5,0.5,2.53099689626078e-05,0.000253099689626078,2021-01-01 22:38:00,2021-01-01 23:18:00,-57.9791666666667,-140.7305,-57.9861666666667,-140.749833333333,19755.06176
"332","58S","Day","Meso",38,"Krill","Crustacean","Euphausia similis similis",68,0.5,2.53099689626078e-05,0.00344215577891466,2021-01-01 22:38:00,2021-01-01 23:18:00,-57.9791666666667,-140.7305,-57.9861666666667,-140.749833333333,19755.06176
"333","58S","Day","Meso",38,"Medusa","Gelatinous","Cuninidae - undifferentiated",2,60,0.00303719627551293,0.000101239875850431,2021-01-01 22:38:00,2021-01-01 23:18:00,-57.9791666666667,-140.7305,-57.9861666666667,-140.749833333333,19755.06176
"334","58S","Day","Meso",38,"Medusa","Gelatinous","Hydromedusa",20,60,0.00303719627551293,0.00101239875850431,2021-01-01 22:38:00,2021-01-01 23:18:00,-57.9791666666667,-140.7305,-57.9861666666667,-140.749833333333,19755.06176
"335","58S","Day","Meso",38,"Siphonophore","Gelatinous","Order Siphonophora - undifferentiated",0,144,0.00728927106123104,0,2021-01-01 22:38:00,2021-01-01 23:18:00,-57.9791666666667,-140.7305,-57.9861666666667,-140.749833333333,19755.06176
"336","58S","Day","Meso",38,"Tunicates","Gelatinous","remainder",884,1023,0.0517841964974955,0.0447480251258906,2021-01-01 22:38:00,2021-01-01 23:18:00,-57.9791666666667,-140.7305,-57.9861666666667,-140.749833333333,19755.06176
"337","58S","Day","Meso",38,"Tunicates","Gelatinous","Salpa thompsoni - aggregate",58,1590,0.0804857013010928,0.0029359563996625,2021-01-01 22:38:00,2021-01-01 23:18:00,-57.9791666666667,-140.7305,-57.9861666666667,-140.749833333333,19755.06176
"338","58S","Day","Meso",38,"Tunicates","Gelatinous","Salpa thompsoni - solitary",24,170,0.00860538944728665,0.00121487851020517,2021-01-01 22:38:00,2021-01-01 23:18:00,-57.9791666666667,-140.7305,-57.9861666666667,-140.749833333333,19755.06176
"339","58S","Day","Meso",38,"Tunicates","Gelatinous","Salpa thompsoni - solitary juv",16,30,0.00151859813775647,0.000809919006803449,2021-01-01 22:38:00,2021-01-01 23:18:00,-57.9791666666667,-140.7305,-57.9861666666667,-140.749833333333,19755.06176
"340","58S","Day","Epi",39,"Amphipods","Crustacean","Hyperiidae - undifferentiated",2,0.5,2.53099689626078e-05,0.000101239875850431,2021-01-02 02:13:00,2021-01-02 02:53:00,-57.9908333333333,-140.766166666667,-57.9976666666667,-140.784333333333,19755.06176
"341","58S","Day","Epi",39,"Amphipods","Crustacean","Themisto gaudichaudii",313,40,0.00202479751700862,0.0158440405705925,2021-01-02 02:13:00,2021-01-02 02:53:00,-57.9908333333333,-140.766166666667,-57.9976666666667,-140.784333333333,19755.06176
"342","58S","Day","Epi",39,"Fish","Fish","Larval Fish",13,0.5,2.53099689626078e-05,0.000658059193027802,2021-01-02 02:13:00,2021-01-02 02:53:00,-57.9908333333333,-140.766166666667,-57.9976666666667,-140.784333333333,19755.06176
"343","58S","Day","Epi",39,"Gymnosome","other","Spongiobranchaea australis",11,3,0.000151859813775647,0.000556819317177371,2021-01-02 02:13:00,2021-01-02 02:53:00,-57.9908333333333,-140.766166666667,-57.9976666666667,-140.784333333333,19755.06176
"344","58S","Day","Epi",39,"Medusa","Gelatinous","Order Anthoathecata - undifferentiated",1,20,0.00101239875850431,5.06199379252156e-05,2021-01-02 02:13:00,2021-01-02 02:53:00,-57.9908333333333,-140.766166666667,-57.9976666666667,-140.784333333333,19755.06176
"345","58S","Day","Epi",39,"Tunicates","Gelatinous","Salpa fusiformis",133,216,0.0109339065918466,0.00673245174405367,2021-01-02 02:13:00,2021-01-02 02:53:00,-57.9908333333333,-140.766166666667,-57.9976666666667,-140.784333333333,19755.06176
"346","58S","Day","Epi",39,"Tunicates","Gelatinous","Salpa thompsoni - aggregate",1995,445,0.0225258723767209,0.100986776160805,2021-01-02 02:13:00,2021-01-02 02:53:00,-57.9908333333333,-140.766166666667,-57.9976666666667,-140.784333333333,19755.06176
"347","58S","Day","Epi",39,"Tunicates","Gelatinous","Salpa thompsoni - solitary",6,15,0.000759299068878233,0.000303719627551293,2021-01-02 02:13:00,2021-01-02 02:53:00,-57.9908333333333,-140.766166666667,-57.9976666666667,-140.784333333333,19755.06176
"348","58S","Day","Epi",39,"Tunicates","Gelatinous","Salpa thompsoni - solitary juv",49,72,0.00364463553061552,0.00248037695833556,2021-01-02 02:13:00,2021-01-02 02:53:00,-57.9908333333333,-140.766166666667,-57.9976666666667,-140.784333333333,19755.06176
"349","58S","Night","Meso",40,"Fish","Fish","Bathylagus sp.",5,63,0.00318905608928858,0.000253099689626078,2021-01-02 14:15:00,2021-01-02 14:55:00,-57.9891666666667,-140.7125,-57.9815,-140.734333333333,19755.06176
"350","58S","Night","Meso",40,"Gymnosome","other","Order Gymnosomata - undifferentiated",8,1,5.06199379252156e-05,0.000404959503401725,2021-01-02 14:15:00,2021-01-02 14:55:00,-57.9891666666667,-140.7125,-57.9815,-140.734333333333,19755.06176
"351","58S","Night","Meso",40,"Gymnosome","other","Spongiobranchaea australis",4,0.5,2.53099689626078e-05,0.000202479751700862,2021-01-02 14:15:00,2021-01-02 14:55:00,-57.9891666666667,-140.7125,-57.9815,-140.734333333333,19755.06176
"352","58S","Night","Meso",40,"Krill","Crustacean","Euphausia similis similis",41,1,5.06199379252156e-05,0.00207541745493384,2021-01-02 14:15:00,2021-01-02 14:55:00,-57.9891666666667,-140.7125,-57.9815,-140.734333333333,19755.06176
"353","58S","Night","Meso",40,"Krill","Crustacean","Thysanoessa macrura",38,1,5.06199379252156e-05,0.00192355764115819,2021-01-02 14:15:00,2021-01-02 14:55:00,-57.9891666666667,-140.7125,-57.9815,-140.734333333333,19755.06176
"354","58S","Night","Meso",40,"Medusa","Gelatinous","Calycopsis spp.",11,38,0.00192355764115819,0.000556819317177371,2021-01-02 14:15:00,2021-01-02 14:55:00,-57.9891666666667,-140.7125,-57.9815,-140.734333333333,19755.06176
"355","58S","Night","Meso",40,"Medusa","Gelatinous","Periphylla periphylla",4,1,5.06199379252156e-05,0.000202479751700862,2021-01-02 14:15:00,2021-01-02 14:55:00,-57.9891666666667,-140.7125,-57.9815,-140.734333333333,19755.06176
"356","58S","Night","Meso",40,"Other","other","eggs",22,1,5.06199379252156e-05,0.00111363863435474,2021-01-02 14:15:00,2021-01-02 14:55:00,-57.9891666666667,-140.7125,-57.9815,-140.734333333333,19755.06176
"357","58S","Night","Meso",40,"Tunicates","Gelatinous","Salpa thompsoni - aggregate",557,1245,0.0630218227168934,0.0281953054243451,2021-01-02 14:15:00,2021-01-02 14:55:00,-57.9891666666667,-140.7125,-57.9815,-140.734333333333,19755.06176
"358","58S","Night","Meso",40,"Tunicates","Gelatinous","Salpa thompsoni - solitary",15,138,0.00698555143367975,0.000759299068878233,2021-01-02 14:15:00,2021-01-02 14:55:00,-57.9891666666667,-140.7125,-57.9815,-140.734333333333,19755.06176
"359","58S","Night","Meso",40,"Tunicates","Gelatinous","Salpa thompsoni - solitary juv",38,19,0.000961778820579096,0.00192355764115819,2021-01-02 14:15:00,2021-01-02 14:55:00,-57.9891666666667,-140.7125,-57.9815,-140.734333333333,19755.06176
"360","58S","Day","Lmeso",41,"Amphipods","Crustacean","Cyllopus spp.",1,0.5,8.43665632086926e-06,1.68733126417385e-05,2021-01-04 02:39:00,2021-01-04 04:39:00,-56.0231666666667,-140.680666666667,-56.046,-140.7225,59265.18528
"361","58S","Day","Lmeso",41,"Amphipods","Crustacean","Hyperia spp.",1,0.5,8.43665632086926e-06,1.68733126417385e-05,2021-01-04 02:39:00,2021-01-04 04:39:00,-56.0231666666667,-140.680666666667,-56.046,-140.7225,59265.18528
"362","58S","Day","Lmeso",41,"Amphipods","Crustacean","Hyperiidae - undifferentiated",2,0.5,8.43665632086926e-06,3.3746625283477e-05,2021-01-04 02:39:00,2021-01-04 04:39:00,-56.0231666666667,-140.680666666667,-56.046,-140.7225,59265.18528
"363","58S","Day","Lmeso",41,"Amphipods","Crustacean","Lanceola spp.",2,0.5,8.43665632086926e-06,3.3746625283477e-05,2021-01-04 02:39:00,2021-01-04 04:39:00,-56.0231666666667,-140.680666666667,-56.046,-140.7225,59265.18528
"364","58S","Day","Lmeso",41,"Amphipods","Crustacean","Metacyphocaris spp.",1,0.5,8.43665632086926e-06,1.68733126417385e-05,2021-01-04 02:39:00,2021-01-04 04:39:00,-56.0231666666667,-140.680666666667,-56.046,-140.7225,59265.18528
"365","58S","Day","Lmeso",41,"Amphipods","Crustacean","Primno spp.",2,0.5,8.43665632086926e-06,3.3746625283477e-05,2021-01-04 02:39:00,2021-01-04 04:39:00,-56.0231666666667,-140.680666666667,-56.046,-140.7225,59265.18528
"366","58S","Day","Lmeso",41,"Amphipods","Crustacean","Scina spp.",2,0.5,8.43665632086926e-06,3.3746625283477e-05,2021-01-04 02:39:00,2021-01-04 04:39:00,-56.0231666666667,-140.680666666667,-56.046,-140.7225,59265.18528
"367","58S","Day","Lmeso",41,"Amphipods","Crustacean","Themisto gaudichaudii",1,0.5,8.43665632086926e-06,1.68733126417385e-05,2021-01-04 02:39:00,2021-01-04 04:39:00,-56.0231666666667,-140.680666666667,-56.046,-140.7225,59265.18528
"368","58S","Day","Lmeso",41,"Amphipods","Crustacean","Vibilia spp.",1,0.5,8.43665632086926e-06,1.68733126417385e-05,2021-01-04 02:39:00,2021-01-04 04:39:00,-56.0231666666667,-140.680666666667,-56.046,-140.7225,59265.18528
"369","58S","Day","Lmeso",41,"Cephalopod","Cephalopod","Cranchiidae - undifferentiated",1,0.5,8.43665632086926e-06,1.68733126417385e-05,2021-01-04 02:39:00,2021-01-04 04:39:00,-56.0231666666667,-140.680666666667,-56.046,-140.7225,59265.18528
"370","58S","Day","Lmeso",41,"Chaetognath","Chaetognath","Phylum Chaetognatha - undifferentiated",537,172,0.00290220977437903,0.00906096888861359,2021-01-04 02:39:00,2021-01-04 04:39:00,-56.0231666666667,-140.680666666667,-56.046,-140.7225,59265.18528
"371","58S","Day","Lmeso",41,"Copepod","Crustacean","Order Calanoida - undifferentiated",12,0.5,8.43665632086926e-06,0.000202479751700862,2021-01-04 02:39:00,2021-01-04 04:39:00,-56.0231666666667,-140.680666666667,-56.046,-140.7225,59265.18528
"372","58S","Day","Lmeso",41,"Fish","Fish","Lampanyctus sp.",2,22,0.000371212878118247,3.3746625283477e-05,2021-01-04 02:39:00,2021-01-04 04:39:00,-56.0231666666667,-140.680666666667,-56.046,-140.7225,59265.18528
"373","58S","Day","Lmeso",41,"Gymnosome","other","Order Gymnosomata - undifferentiated",1,0.5,8.43665632086926e-06,1.68733126417385e-05,2021-01-04 02:39:00,2021-01-04 04:39:00,-56.0231666666667,-140.680666666667,-56.046,-140.7225,59265.18528
"374","58S","Day","Lmeso",41,"Gymnosome","other","Spongiobranchaea australis",17,0.5,8.43665632086926e-06,0.000286846314909555,2021-01-04 02:39:00,2021-01-04 04:39:00,-56.0231666666667,-140.680666666667,-56.046,-140.7225,59265.18528
"375","58S","Day","Lmeso",41,"Krill","Crustacean","Euphausia triacantha",180,45,0.000759299068878233,0.00303719627551293,2021-01-04 02:39:00,2021-01-04 04:39:00,-56.0231666666667,-140.680666666667,-56.046,-140.7225,59265.18528
"376","58S","Day","Lmeso",41,"Medusa","Gelatinous","Hydromedusa",49,14,0.000236226376984339,0.000826792319445188,2021-01-04 02:39:00,2021-01-04 04:39:00,-56.0231666666667,-140.680666666667,-56.046,-140.7225,59265.18528
"377","58S","Day","Lmeso",41,"Medusa","Gelatinous","Periphylla periphylla",1,6620,0.111701329688309,1.68733126417385e-05,2021-01-04 02:39:00,2021-01-04 04:39:00,-56.0231666666667,-140.680666666667,-56.046,-140.7225,59265.18528
"378","58S","Day","Lmeso",41,"Ostocod","Ostocod","Gigantocypris spp.",6,0.5,8.43665632086926e-06,0.000101239875850431,2021-01-04 02:39:00,2021-01-04 04:39:00,-56.0231666666667,-140.680666666667,-56.046,-140.7225,59265.18528
"379","58S","Day","Lmeso",41,"Other","other","Danaella mimonectus",1,0.5,8.43665632086926e-06,1.68733126417385e-05,2021-01-04 02:39:00,2021-01-04 04:39:00,-56.0231666666667,-140.680666666667,-56.046,-140.7225,59265.18528
"380","58S","Day","Lmeso",41,"Prawn","Crustacean","Sergestes spp.",2,2,3.3746625283477e-05,3.3746625283477e-05,2021-01-04 02:39:00,2021-01-04 04:39:00,-56.0231666666667,-140.680666666667,-56.046,-140.7225,59265.18528
"381","58S","Day","Lmeso",41,"Pteropod","other","Clio spp.",2,0.5,8.43665632086926e-06,3.3746625283477e-05,2021-01-04 02:39:00,2021-01-04 04:39:00,-56.0231666666667,-140.680666666667,-56.046,-140.7225,59265.18528
"382","58S","Day","Lmeso",41,"Pteropod","other","Order Thecosomata - undifferentiated",2,0.5,8.43665632086926e-06,3.3746625283477e-05,2021-01-04 02:39:00,2021-01-04 04:39:00,-56.0231666666667,-140.680666666667,-56.046,-140.7225,59265.18528
"383","58S","Day","Lmeso",41,"Pteropod","other","Styliola subula",2,0.5,8.43665632086926e-06,3.3746625283477e-05,2021-01-04 02:39:00,2021-01-04 04:39:00,-56.0231666666667,-140.680666666667,-56.046,-140.7225,59265.18528
"384","58S","Day","Lmeso",41,"Tunicates","Gelatinous","Salpa fusiformis",1,0.5,8.43665632086926e-06,1.68733126417385e-05,2021-01-04 02:39:00,2021-01-04 04:39:00,-56.0231666666667,-140.680666666667,-56.046,-140.7225,59265.18528
"385","58S","Day","Lmeso",41,"Tunicates","Gelatinous","Salpa thompsoni - solitary juv",14,20,0.00033746625283477,0.000236226376984339,2021-01-04 02:39:00,2021-01-04 04:39:00,-56.0231666666667,-140.680666666667,-56.046,-140.7225,59265.18528
"386","58S","Day","Lmeso",41,"worms","other","Pelagonemertes spp.",17,5,8.43665632086926e-05,0.000286846314909555,2021-01-04 02:39:00,2021-01-04 04:39:00,-56.0231666666667,-140.680666666667,-56.046,-140.7225,59265.18528
"387","58S","Night","Lmeso",42,"Amphipods","Crustacean","Order Amphipoda - undifferentiated",1,0.5,6.48973563143789e-07,1.29794712628758e-06,2021-01-04 12:38:00,2021-01-05 14:38:00,-56.0195,-140.622666666667,-56.0561666666667,-140.745,770447.40864
"388","58S","Night","Lmeso",42,"Amphipods","Crustacean","Pegohyperia princeps",1,1,1.29794712628758e-06,1.29794712628758e-06,2021-01-04 12:38:00,2021-01-05 14:38:00,-56.0195,-140.622666666667,-56.0561666666667,-140.745,770447.40864
"389","58S","Night","Lmeso",42,"Chaetognath","Chaetognath","Phylum Chaetognatha - undifferentiated",16,4,5.19178850515031e-06,2.07671540206013e-05,2021-01-04 12:38:00,2021-01-05 14:38:00,-56.0195,-140.622666666667,-56.0561666666667,-140.745,770447.40864
"390","58S","Night","Lmeso",42,"Fish","Fish","Lampanyctus sp.",2,61,7.91747747035423e-05,2.59589425257516e-06,2021-01-04 12:38:00,2021-01-05 14:38:00,-56.0195,-140.622666666667,-56.0561666666667,-140.745,770447.40864
"391","58S","Night","Lmeso",42,"Gymnosome","other","Order Gymnosomata - undifferentiated",4,1,1.29794712628758e-06,5.19178850515031e-06,2021-01-04 12:38:00,2021-01-05 14:38:00,-56.0195,-140.622666666667,-56.0561666666667,-140.745,770447.40864
"392","58S","Night","Lmeso",42,"Medusa","Gelatinous","Halicreas minimum",9,1,1.29794712628758e-06,1.16815241365882e-05,2021-01-04 12:38:00,2021-01-05 14:38:00,-56.0195,-140.622666666667,-56.0561666666667,-140.745,770447.40864
"393","58S","Night","Lmeso",42,"Medusa","Gelatinous","Hydromedusa",59,14.5,1.88202333311699e-05,7.65788804509671e-05,2021-01-04 12:38:00,2021-01-05 14:38:00,-56.0195,-140.622666666667,-56.0561666666667,-140.745,770447.40864
"394","58S","Night","Lmeso",42,"Medusa","Gelatinous","Pegantha spp.",1,20,2.59589425257516e-05,1.29794712628758e-06,2021-01-04 12:38:00,2021-01-05 14:38:00,-56.0195,-140.622666666667,-56.0561666666667,-140.745,770447.40864
"395","58S","Night","Lmeso",42,"Prawn","Crustacean","Sergestes spp.",1,0.5,6.48973563143789e-07,1.29794712628758e-06,2021-01-04 12:38:00,2021-01-05 14:38:00,-56.0195,-140.622666666667,-56.0561666666667,-140.745,770447.40864
"396","58S","Night","Lmeso",42,"Tunicates","Gelatinous","Salpa thompsoni - aggregate",55,250,0.000324486781571895,7.13870919458168e-05,2021-01-04 12:38:00,2021-01-05 14:38:00,-56.0195,-140.622666666667,-56.0561666666667,-140.745,770447.40864
"397","58S","Night","Lmeso",42,"worms","other","Class Polychaeta - undifferentiated",10,3,3.89384137886274e-06,1.29794712628758e-05,2021-01-04 12:38:00,2021-01-05 14:38:00,-56.0195,-140.622666666667,-56.0561666666667,-140.745,770447.40864
"398","58S","Day","targeted_70to90m",43,"Amphipods","Crustacean","Themisto gaudichaudii",47796,2820,0.285496449898216,4.83886110614721,2021-01-05 03:17:00,2021-01-05 03:37:00,-56.0258333333333,-140.567,-56.0285,-140.577833333333,9877.53088
"399","58S","Day","targeted_70to90m",43,"Cephalopod","Cephalopod","Cranchiidae - undifferentiated",1,0.5,5.06199379252156e-05,0.000101239875850431,2021-01-05 03:17:00,2021-01-05 03:37:00,-56.0258333333333,-140.567,-56.0285,-140.577833333333,9877.53088
"400","58S","Day","targeted_70to90m",43,"Medusa","Gelatinous","Hydromedusa",1,0.5,5.06199379252156e-05,0.000101239875850431,2021-01-05 03:17:00,2021-01-05 03:37:00,-56.0258333333333,-140.567,-56.0285,-140.577833333333,9877.53088
"401","58S","Day","targeted_70to90m",43,"Tunicates","Gelatinous","Salpa thompsoni - aggregate",39,118,0.0119463053503509,0.00394835515816681,2021-01-05 03:17:00,2021-01-05 03:37:00,-56.0258333333333,-140.567,-56.0285,-140.577833333333,9877.53088
"402","58S","Day","Epi",44,"Amphipods","Crustacean","Hyperia spp.",2,0.5,2.53099689626078e-05,0.000101239875850431,2021-01-06 04:58:00,2021-01-06 05:38:00,-56.0241666666667,-140.464666666667,-56.0263333333333,-140.485,19755.06176
"403","58S","Day","Epi",44,"Amphipods","Crustacean","Primno spp.",2,0.5,2.53099689626078e-05,0.000101239875850431,2021-01-06 04:58:00,2021-01-06 05:38:00,-56.0241666666667,-140.464666666667,-56.0263333333333,-140.485,19755.06176
"404","58S","Day","Epi",44,"Amphipods","Crustacean","Vibilia spp.",11,0.5,2.53099689626078e-05,0.000556819317177371,2021-01-06 04:58:00,2021-01-06 05:38:00,-56.0241666666667,-140.464666666667,-56.0263333333333,-140.485,19755.06176
"405","58S","Day","Epi",44,"Cephalopod","Cephalopod","Cranchiidae - undifferentiated",2,0.5,2.53099689626078e-05,0.000101239875850431,2021-01-06 04:58:00,2021-01-06 05:38:00,-56.0241666666667,-140.464666666667,-56.0263333333333,-140.485,19755.06176
"406","58S","Day","Epi",44,"Chaetognath","Chaetognath","Phylum Chaetognatha - undifferentiated",25,0.5,2.53099689626078e-05,0.00126549844813039,2021-01-06 04:58:00,2021-01-06 05:38:00,-56.0241666666667,-140.464666666667,-56.0263333333333,-140.485,19755.06176
"407","58S","Day","Epi",44,"Fish","Fish","Larval Fish",6,0.5,2.53099689626078e-05,0.000303719627551293,2021-01-06 04:58:00,2021-01-06 05:38:00,-56.0241666666667,-140.464666666667,-56.0263333333333,-140.485,19755.06176
"408","58S","Day","Epi",44,"Tunicates","Gelatinous","Salpa thompsoni - aggregate",197,369,0.0186787570944045,0.00997212777126747,2021-01-06 04:58:00,2021-01-06 05:38:00,-56.0241666666667,-140.464666666667,-56.0263333333333,-140.485,19755.06176
"409","58S","Day","Epi",44,"Tunicates","Gelatinous","Salpa thompsoni - solitary",107,169,0.00855476950936143,0.00541633335799807,2021-01-06 04:58:00,2021-01-06 05:38:00,-56.0241666666667,-140.464666666667,-56.0263333333333,-140.485,19755.06176
"410","58S","Day","Epi",44,"Tunicates","Gelatinous","Salpa thompsoni - solitary juv",87,88,0.00445455453741897,0.00440393459949375,2021-01-06 04:58:00,2021-01-06 05:38:00,-56.0241666666667,-140.464666666667,-56.0263333333333,-140.485,19755.06176
"411","58S","Day","Epi",44,"worms","other","Class Polychaeta - undifferentiated",1,0.5,2.53099689626078e-05,5.06199379252156e-05,2021-01-06 04:58:00,2021-01-06 05:38:00,-56.0241666666667,-140.464666666667,-56.0263333333333,-140.485,19755.06176
"412","58S","Day","Meso",45,"Amphipods","Crustacean","Cyllopus spp.",7,0.5,2.53099689626078e-05,0.000354339565476509,2021-01-06 08:53:00,2021-01-06 09:33:00,-56.0266666666667,-140.517666666667,-56.0288333333333,-140.550833333333,19755.06176
"413","58S","Day","Meso",45,"Amphipods","Crustacean","Hyperia spp.",2,0.5,2.53099689626078e-05,0.000101239875850431,2021-01-06 08:53:00,2021-01-06 09:33:00,-56.0266666666667,-140.517666666667,-56.0288333333333,-140.550833333333,19755.06176
"414","58S","Day","Meso",45,"Amphipods","Crustacean","Themisto gaudichaudii",10,0.5,2.53099689626078e-05,0.000506199379252156,2021-01-06 08:53:00,2021-01-06 09:33:00,-56.0266666666667,-140.517666666667,-56.0288333333333,-140.550833333333,19755.06176
"415","58S","Day","Meso",45,"Amphipods","Crustacean","Vibilia spp.",3,0.5,2.53099689626078e-05,0.000151859813775647,2021-01-06 08:53:00,2021-01-06 09:33:00,-56.0266666666667,-140.517666666667,-56.0288333333333,-140.550833333333,19755.06176
"416","58S","Day","Meso",45,"Chaetognath","Chaetognath","Phylum Chaetognatha - undifferentiated",900,180,0.0091115888265388,0.045557944132694,2021-01-06 08:53:00,2021-01-06 09:33:00,-56.0266666666667,-140.517666666667,-56.0288333333333,-140.550833333333,19755.06176
"417","58S","Day","Meso",45,"Fish","Fish","Larval Fish",1,0.5,2.53099689626078e-05,5.06199379252156e-05,2021-01-06 08:53:00,2021-01-06 09:33:00,-56.0266666666667,-140.517666666667,-56.0288333333333,-140.550833333333,19755.06176
"418","58S","Day","Meso",45,"Krill","Crustacean","Euphausia triacantha",207,27,0.00136673832398082,0.0104783271505196,2021-01-06 08:53:00,2021-01-06 09:33:00,-56.0266666666667,-140.517666666667,-56.0288333333333,-140.550833333333,19755.06176
"419","58S","Day","Meso",45,"Krill","Crustacean","Order Euphausiacea - undifferentiated",179,4,0.000202479751700862,0.00906096888861359,2021-01-06 08:53:00,2021-01-06 09:33:00,-56.0266666666667,-140.517666666667,-56.0288333333333,-140.550833333333,19755.06176
"420","58S","Day","Meso",45,"Medusa","Gelatinous","Hydromedusa",9,20,0.00101239875850431,0.00045557944132694,2021-01-06 08:53:00,2021-01-06 09:33:00,-56.0266666666667,-140.517666666667,-56.0288333333333,-140.550833333333,19755.06176
"421","58S","Day","Meso",45,"Pteropod","other","Styliola subula",2,0.5,2.53099689626078e-05,0.000101239875850431,2021-01-06 08:53:00,2021-01-06 09:33:00,-56.0266666666667,-140.517666666667,-56.0288333333333,-140.550833333333,19755.06176
"422","58S","Day","Meso",45,"Siphonophore","Gelatinous","Diphyes spp.",1,0.5,2.53099689626078e-05,5.06199379252156e-05,2021-01-06 08:53:00,2021-01-06 09:33:00,-56.0266666666667,-140.517666666667,-56.0288333333333,-140.550833333333,19755.06176
"423","58S","Day","Meso",45,"Tunicates","Gelatinous","Salpa thompsoni - aggregate",149,450,0.022778972066347,0.00754237075085712,2021-01-06 08:53:00,2021-01-06 09:33:00,-56.0266666666667,-140.517666666667,-56.0288333333333,-140.550833333333,19755.06176
"424","58S","Day","Meso",45,"Tunicates","Gelatinous","Salpa thompsoni - solitary juv",24,27,0.00136673832398082,0.00121487851020517,2021-01-06 08:53:00,2021-01-06 09:33:00,-56.0266666666667,-140.517666666667,-56.0288333333333,-140.550833333333,19755.06176
"425","58S","Night","Lmeso",46,"Amphipods","Crustacean","Order Amphipoda - undifferentiated",15,1,1.68733126417385e-05,0.000253099689626078,2021-01-06 15:11:00,2021-01-06 17:11:00,-56.0703333333333,-140.496166666667,-56.0768333333333,-140.557666666667,59265.18528
"426","58S","Night","Lmeso",46,"Cephalopod","Cephalopod","Order Teuthoidea - undifferentiated",1,35,0.000590565942460848,1.68733126417385e-05,2021-01-06 15:11:00,2021-01-06 17:11:00,-56.0703333333333,-140.496166666667,-56.0768333333333,-140.557666666667,59265.18528
"427","58S","Night","Lmeso",46,"Chaetognath","Chaetognath","Phylum Chaetognatha - undifferentiated",18,2.5,4.21832816043463e-05,0.000303719627551293,2021-01-06 15:11:00,2021-01-06 17:11:00,-56.0703333333333,-140.496166666667,-56.0768333333333,-140.557666666667,59265.18528
"428","58S","Night","Lmeso",46,"Fish","Fish","Bathylagus sp.",7,25,0.000421832816043463,0.00011811318849217,2021-01-06 15:11:00,2021-01-06 17:11:00,-56.0703333333333,-140.496166666667,-56.0768333333333,-140.557666666667,59265.18528
"429","58S","Night","Lmeso",46,"Fish","Fish","Cyclothone sp.",16,10,0.000168733126417385,0.000269973002267816,2021-01-06 15:11:00,2021-01-06 17:11:00,-56.0703333333333,-140.496166666667,-56.0768333333333,-140.557666666667,59265.18528
"430","58S","Night","Lmeso",46,"Fish","Fish","Lampanyctus sp.",1,8,0.000134986501133908,1.68733126417385e-05,2021-01-06 15:11:00,2021-01-06 17:11:00,-56.0703333333333,-140.496166666667,-56.0768333333333,-140.557666666667,59265.18528
"431","58S","Night","Lmeso",46,"Fish","Fish","Notolepis coatsi",3,1,1.68733126417385e-05,5.06199379252156e-05,2021-01-06 15:11:00,2021-01-06 17:11:00,-56.0703333333333,-140.496166666667,-56.0768333333333,-140.557666666667,59265.18528
"432","58S","Night","Lmeso",46,"Gnathaphausia","Crustacean","Gnathophausia spp.",2,0.5,8.43665632086926e-06,3.3746625283477e-05,2021-01-06 15:11:00,2021-01-06 17:11:00,-56.0703333333333,-140.496166666667,-56.0768333333333,-140.557666666667,59265.18528
"433","58S","Night","Lmeso",46,"Gymnosome","other","Order Gymnosomata - undifferentiated",5,1,1.68733126417385e-05,8.43665632086926e-05,2021-01-06 15:11:00,2021-01-06 17:11:00,-56.0703333333333,-140.496166666667,-56.0768333333333,-140.557666666667,59265.18528
"434","58S","Night","Lmeso",46,"Gymnosome","other","Spongiobranchaea australis",22,0.5,8.43665632086926e-06,0.000371212878118247,2021-01-06 15:11:00,2021-01-06 17:11:00,-56.0703333333333,-140.496166666667,-56.0768333333333,-140.557666666667,59265.18528
"435","58S","Night","Lmeso",46,"Medusa","Gelatinous","Atolla wyvillei",15,377,0.00636123886593542,0.000253099689626078,2021-01-06 15:11:00,2021-01-06 17:11:00,-56.0703333333333,-140.496166666667,-56.0768333333333,-140.557666666667,59265.18528
"436","58S","Night","Lmeso",46,"Medusa","Gelatinous","Hydromedusa",93,132,0.00222727726870948,0.00156921807568168,2021-01-06 15:11:00,2021-01-06 17:11:00,-56.0703333333333,-140.496166666667,-56.0768333333333,-140.557666666667,59265.18528
"437","58S","Night","Lmeso",46,"Medusa","Gelatinous","Pegantha spp.",1,40,0.000674932505669541,1.68733126417385e-05,2021-01-06 15:11:00,2021-01-06 17:11:00,-56.0703333333333,-140.496166666667,-56.0768333333333,-140.557666666667,59265.18528
"438","58S","Night","Lmeso",46,"Medusa","Gelatinous","Periphylla periphylla",8,1010,0.0170420457681559,0.000134986501133908,2021-01-06 15:11:00,2021-01-06 17:11:00,-56.0703333333333,-140.496166666667,-56.0768333333333,-140.557666666667,59265.18528
"439","58S","Night","Lmeso",46,"Prawn","Crustacean","Acanthephyra quadrispinosa",2,14,0.000236226376984339,3.3746625283477e-05,2021-01-06 15:11:00,2021-01-06 17:11:00,-56.0703333333333,-140.496166666667,-56.0768333333333,-140.557666666667,59265.18528
"440","58S","Night","Lmeso",46,"Tunicates","Gelatinous","Salpa thompsoni - aggregate",245,770,0.0129924507341387,0.00413396159722594,2021-01-06 15:11:00,2021-01-06 17:11:00,-56.0703333333333,-140.496166666667,-56.0768333333333,-140.557666666667,59265.18528
"441","58S","Night","Lmeso",46,"Tunicates","Gelatinous","Salpa thompsoni - solitary",1,15,0.000253099689626078,1.68733126417385e-05,2021-01-06 15:11:00,2021-01-06 17:11:00,-56.0703333333333,-140.496166666667,-56.0768333333333,-140.557666666667,59265.18528
"442","58S","Night","Lmeso",46,"Tunicates","Gelatinous","Salpa thompsoni - solitary juv",27,17,0.000286846314909555,0.00045557944132694,2021-01-06 15:11:00,2021-01-06 17:11:00,-56.0703333333333,-140.496166666667,-56.0768333333333,-140.557666666667,59265.18528
"443","58S","Night","Lmeso",46,"worms","other","Class Polychaeta - undifferentiated",3,0.5,8.43665632086926e-06,5.06199379252156e-05,2021-01-06 15:11:00,2021-01-06 17:11:00,-56.0703333333333,-140.496166666667,-56.0768333333333,-140.557666666667,59265.18528
"444","58S","Night","Lmeso",46,NA,NA,"Spherical eggs",14,0.5,8.43665632086926e-06,0.000236226376984339,2021-01-06 15:11:00,2021-01-06 17:11:00,-56.0703333333333,-140.496166666667,-56.0768333333333,-140.557666666667,59265.18528
"445","58S","Day","Lmeso",47,"Chaetognath","Chaetognath","Phylum Chaetognatha - undifferentiated",283,51,0.000860538944728665,0.004775147477612,2021-01-07 04:55:00,2021-01-07 06:55:00,-56.0706666666667,-140.538666666667,-56.0785,-140.589,59265.18528
"446","58S","Day","Lmeso",47,"Ctenophore","Gelatinous","Phylum Ctenophora - undifferentiated",0,81,0.00136673832398082,0,2021-01-07 04:55:00,2021-01-07 06:55:00,-56.0706666666667,-140.538666666667,-56.0785,-140.589,59265.18528
"447","58S","Day","Lmeso",47,"Medusa","Gelatinous","Hydromedusa",5,10,0.000168733126417385,8.43665632086926e-05,2021-01-07 04:55:00,2021-01-07 06:55:00,-56.0706666666667,-140.538666666667,-56.0785,-140.589,59265.18528
"448","58S",NA,NA,48,"Tunicates","Gelatinous","Salpa thompsoni - aggregate",50,240,0.0173554072886453,0.00361570985180111,2021-01-07 09:56:00,2021-01-07 10:24:00,-56.0705,-140.4385,-56.0686666666667,-140.453666666667,13828.543232
"449","58S","Day","targeted_60m",48,"Tunicates","Gelatinous","Salpa thompsoni - aggregate",50,240,0.0242975702041035,0.00506199379252156,2021-01-07 10:04:00,2021-01-07 10:24:00,-56.0701666666667,-140.442333333333,-56.0686666666667,-140.453666666667,9877.53088
"450","58S","Night","Epi",49,"Gymnosome","other","Order Gymnosomata - undifferentiated",4,4,0.000202479751700862,0.000202479751700862,2021-01-07 14:00:00,2021-01-07 14:40:00,-56.1035,-140.426333333333,-56.1016666666667,-140.451333333333,19755.06176
"451","58S","Night","Epi",49,"Gymnosome","other","Spongiobranchaea australis",21,1,5.06199379252156e-05,0.00106301869642953,2021-01-07 14:00:00,2021-01-07 14:40:00,-56.1035,-140.426333333333,-56.1016666666667,-140.451333333333,19755.06176
"452","58S","Night","Epi",49,"Krill","Crustacean","Euphausia similis similis",403,67,0.00339153584098944,0.0203998349838619,2021-01-07 14:00:00,2021-01-07 14:40:00,-56.1035,-140.426333333333,-56.1016666666667,-140.451333333333,19755.06176
"453","58S","Night","Epi",49,"Krill","Crustacean","Euphausia triacantha",570,140,0.00708679130953018,0.0288533646173729,2021-01-07 14:00:00,2021-01-07 14:40:00,-56.1035,-140.426333333333,-56.1016666666667,-140.451333333333,19755.06176
"454","58S","Night","Epi",49,"Medusa","Gelatinous","Hydromedusa",102,210,0.0106301869642953,0.00516323366837199,2021-01-07 14:00:00,2021-01-07 14:40:00,-56.1035,-140.426333333333,-56.1016666666667,-140.451333333333,19755.06176
"455","58S","Night","Epi",49,"Medusa","Gelatinous","Periphylla periphylla",1,108,0.00546695329592328,5.06199379252156e-05,2021-01-07 14:00:00,2021-01-07 14:40:00,-56.1035,-140.426333333333,-56.1016666666667,-140.451333333333,19755.06176
"456","58S","Night","Epi",49,"Other","other","eggs",49,1,5.06199379252156e-05,0.00248037695833556,2021-01-07 14:00:00,2021-01-07 14:40:00,-56.1035,-140.426333333333,-56.1016666666667,-140.451333333333,19755.06176
"457","58S","Night","Epi",49,"Tunicates","Gelatinous","Salpa thompsoni - solitary",14,420,0.0212603739285905,0.000708679130953018,2021-01-07 14:00:00,2021-01-07 14:40:00,-56.1035,-140.426333333333,-56.1016666666667,-140.451333333333,19755.06176
"458","58S","Night","Epi",49,"Tunicates","Gelatinous","Salpa thompsoni - solitary juv",60,50,0.00253099689626078,0.00303719627551293,2021-01-07 14:00:00,2021-01-07 14:40:00,-56.1035,-140.426333333333,-56.1016666666667,-140.451333333333,19755.06176
"459","58S","Night","Epi",49,"worms","other","Class Polychaeta - undifferentiated",4,0.5,2.53099689626078e-05,0.000202479751700862,2021-01-07 14:00:00,2021-01-07 14:40:00,-56.1035,-140.426333333333,-56.1016666666667,-140.451333333333,19755.06176
"460","55S","Day","Targeted_850to750",52,"Amphipods","Crustacean","Cyllopus spp.",1,0.5,2.53099689626078e-05,5.06199379252156e-05,2021-01-09 01:36:00,2021-01-09 02:16:00,-56.117,-140.4165,-56.117,-140.437333333333,19755.06176
"461","55S","Day","Targeted_850to750",52,"Amphipods","Crustacean","Cyphocaris richardi",3,0.5,2.53099689626078e-05,0.000151859813775647,2021-01-09 01:36:00,2021-01-09 02:16:00,-56.117,-140.4165,-56.117,-140.437333333333,19755.06176
"462","55S","Day","Targeted_850to750",52,"Amphipods","Crustacean","Parandania boecki",2,0.5,2.53099689626078e-05,0.000101239875850431,2021-01-09 01:36:00,2021-01-09 02:16:00,-56.117,-140.4165,-56.117,-140.437333333333,19755.06176
"463","55S","Day","Targeted_850to750",52,"Amphipods","Crustacean","Pegohyperia princeps",1,0.5,2.53099689626078e-05,5.06199379252156e-05,2021-01-09 01:36:00,2021-01-09 02:16:00,-56.117,-140.4165,-56.117,-140.437333333333,19755.06176
"464","55S","Day","Targeted_850to750",52,"Amphipods","Crustacean","Themisto gaudichaudii",1,0.5,2.53099689626078e-05,5.06199379252156e-05,2021-01-09 01:36:00,2021-01-09 02:16:00,-56.117,-140.4165,-56.117,-140.437333333333,19755.06176
"465","55S","Day","Targeted_850to750",52,"Copepod","Crustacean","Calanoides spp.",3,0.5,2.53099689626078e-05,0.000151859813775647,2021-01-09 01:36:00,2021-01-09 02:16:00,-56.117,-140.4165,-56.117,-140.437333333333,19755.06176
"466","55S","Day","Targeted_850to750",52,"Fish","Fish","Cyclothone sp.",2,0.5,2.53099689626078e-05,0.000101239875850431,2021-01-09 01:36:00,2021-01-09 02:16:00,-56.117,-140.4165,-56.117,-140.437333333333,19755.06176
"467","55S","Day","Targeted_850to750",52,"Fish","Fish","Gymnoscopelus spp.",1,0.5,2.53099689626078e-05,5.06199379252156e-05,2021-01-09 01:36:00,2021-01-09 02:16:00,-56.117,-140.4165,-56.117,-140.437333333333,19755.06176
"468","55S","Day","Targeted_850to750",52,"Gnathaphausia","Crustacean","Gnathophausia spp.",3,0.5,2.53099689626078e-05,0.000151859813775647,2021-01-09 01:36:00,2021-01-09 02:16:00,-56.117,-140.4165,-56.117,-140.437333333333,19755.06176
"469","55S","Day","Targeted_850to750",52,"Gymnosome","other","Spongiobranchaea australis",9,0.5,2.53099689626078e-05,0.00045557944132694,2021-01-09 01:36:00,2021-01-09 02:16:00,-56.117,-140.4165,-56.117,-140.437333333333,19755.06176
"470","55S","Day","Targeted_850to750",52,"Krill","Crustacean","Euphausia triacantha",3,0.5,2.53099689626078e-05,0.000151859813775647,2021-01-09 01:36:00,2021-01-09 02:16:00,-56.117,-140.4165,-56.117,-140.437333333333,19755.06176
"471","55S","Day","Targeted_850to750",52,"Medusa","Gelatinous","Hydromedusa",9,1,5.06199379252156e-05,0.00045557944132694,2021-01-09 01:36:00,2021-01-09 02:16:00,-56.117,-140.4165,-56.117,-140.437333333333,19755.06176
"472","55S","Day","Targeted_850to750",52,"Other","other","Danaella mimonectus",1,0.5,2.53099689626078e-05,5.06199379252156e-05,2021-01-09 01:36:00,2021-01-09 02:16:00,-56.117,-140.4165,-56.117,-140.437333333333,19755.06176
"473","55S","Day","Targeted_850to750",52,"Pteropod","other","Order Thecosomata - undifferentiated",1,0.5,2.53099689626078e-05,5.06199379252156e-05,2021-01-09 01:36:00,2021-01-09 02:16:00,-56.117,-140.4165,-56.117,-140.437333333333,19755.06176
"474","55S","Day","Targeted_850to750",52,"Tunicates","Gelatinous","Salpa thompsoni - aggregate",54,102,0.00516323366837199,0.00273347664796164,2021-01-09 01:36:00,2021-01-09 02:16:00,-56.117,-140.4165,-56.117,-140.437333333333,19755.06176
"475","55S","Day","Targeted_850to750",52,"worms","other","Tomopteris spp.",1,0.5,2.53099689626078e-05,5.06199379252156e-05,2021-01-09 01:36:00,2021-01-09 02:16:00,-56.117,-140.4165,-56.117,-140.437333333333,19755.06176
"476","58S","Night","Meso",53,"Cephalopod","Cephalopod","Cranchiidae - undifferentiated",1,0.5,2.53099689626078e-05,5.06199379252156e-05,2021-01-09 14:23:00,2021-01-09 15:03:00,-56.1273333333333,-140.393333333333,-56.1291666666667,-140.4115,19755.06176
"477","58S","Night","Meso",53,"Chaetognath","Chaetognath","Phylum Chaetognatha - undifferentiated",2,0.5,2.53099689626078e-05,0.000101239875850431,2021-01-09 14:23:00,2021-01-09 15:03:00,-56.1273333333333,-140.393333333333,-56.1291666666667,-140.4115,19755.06176
"478","58S","Night","Meso",53,"Gymnosome","other","Order Gymnosomata - undifferentiated",1,0.5,2.53099689626078e-05,5.06199379252156e-05,2021-01-09 14:23:00,2021-01-09 15:03:00,-56.1273333333333,-140.393333333333,-56.1291666666667,-140.4115,19755.06176
"479","58S","Night","Meso",53,"Gymnosome","other","Spongiobranchaea australis",1,0.5,2.53099689626078e-05,5.06199379252156e-05,2021-01-09 14:23:00,2021-01-09 15:03:00,-56.1273333333333,-140.393333333333,-56.1291666666667,-140.4115,19755.06176
"480","58S","Night","Meso",53,"Medusa","Gelatinous","Hydromedusa",2,0.5,2.53099689626078e-05,0.000101239875850431,2021-01-09 14:23:00,2021-01-09 15:03:00,-56.1273333333333,-140.393333333333,-56.1291666666667,-140.4115,19755.06176
"481","58S","Night","Meso",53,"Other","other","eggs",1,0.5,2.53099689626078e-05,5.06199379252156e-05,2021-01-09 14:23:00,2021-01-09 15:03:00,-56.1273333333333,-140.393333333333,-56.1291666666667,-140.4115,19755.06176
"482","58S","Night","Meso",53,"Pteropod","other","Styliola subula",3,0.5,2.53099689626078e-05,0.000151859813775647,2021-01-09 14:23:00,2021-01-09 15:03:00,-56.1273333333333,-140.393333333333,-56.1291666666667,-140.4115,19755.06176
"483","58S","Night","Meso",53,"Tunicates","Gelatinous","Salpa thompsoni - aggregate",173,640,0.032396760272138,0.00875724926106229,2021-01-09 14:23:00,2021-01-09 15:03:00,-56.1273333333333,-140.393333333333,-56.1291666666667,-140.4115,19755.06176
